Affiliation,Facility Name,Address,City,State,Zip Code,Phone,Facility Type,Behavioral Health,Dental,Pharmacy,Website
IHS,Aberdeen Area Youth Regional Treatment Center (AAYRTC),12451 Highway 1806,Mobridge,SD,57601,605-845-7181,Alcohol Substance Abuse Treatment Facility,No,No,No,http://www.ihs.gov/aberdeen/index.cfm?module=ab_ao_hf_ayrtc
IHS,Cheyenne River Hospital,317 Main Street,Eagle Butte,SD,57625,605-964-7724,Hospital,No,No,Yes,http://www.ihs.gov/aberdeen/index.cfm?module=ab_ao_hf_crsu
IHS,Spirit Lake Health Center,3883 74th Avenue NE,Fort Totten,ND,58335,701-766-1600,Health Center,No,No,Yes,http://www.ihs.gov/Aberdeen/index.cfm?module=ab_ao_hf_slsu
IHS,Manderson Health Station,P.O. Box 350 Wounded Knee Dist,Manderson,SD,57756,605-867-5131,Health Station,No,No,No,NULL
IHS,Fort Yates Hospital,1010 River Road (Highway 1806),Fort Yates,ND,58538,701-854-3831,Hospital,No,No,Yes,http://www.ihs.gov/Aberdeen/index.cfm?module=ab_ao_hf_slsu
IHS,Wakpala Health Station,N/A,Wakpala,SD,57658,701-854-3831,Health Station,No,No,No,NULL
IHS,Red Scaffold Health Station,317 Main,Eagle Butte,SD,57625,605-964-8917,Health Station,No,No,No,NULL
Title 1 (Tribal),Cheyenne River Sioux Tribal Field Health Clinic,312 Main Street,Eagle Butte,SD,57625,605-964-8917,Health Location,No,No,No,NULL
IHS,Wellness Center,,Eagle Butte,SD,57625,605-964-8182,Other,No,No,No,NULL
Title 1 (Tribal),Mandaree Health Station Satellite of Minnetohe Health Center Fort Berthold,305 Main Street,Mandaree,ND,58757,701-627-4701,Health Station,No,No,No,NULL
IHS,Healing Spirit Community Rehabilitation Center,2615 Douglas Street,Sioux City,IA,51105,N/A,Alcohol Substance Abuse Treatment Facility,No,No,No,NULL
IHS,Lincoln,1701 E St.,Lincoln,NE,68508,402-438-9222,Other,No,No,No,NULL
Title 1 (Tribal),Carl T Curtis Health Education Center and Nursing Home,100 Indian Hills Drive,Macy,NE,68039,402-837-5381,Health Center,No,No,No,NULL
IHS,Albuquerque Indian Health Center,801 Vassar Dr NE,Albuquerque,NM,87106,505-248-4000,Health Center,Yes,No,Yes,http://www.ihs.gov/FacilitiesServices/areaOffices/albuquerque/index.cfm?module=abq_albuquerque_su
IHS,Santa Ana Health Station,"02-C Dove Rd Pueblo, Station A",Bernalillo,NM,87004,505-867-2497,Health Station,No,No,No,NULL
Title 5 (638),Sandia Health Station,203 Sandia Day School Road,Bernalillo,NM,87004,505-867-4696,Health Station,Yes,Yes,No,NULL
IHS,Zia Pueblo Health Station,155 Capital Square,Zia Pueblo,NM,87053,505-867-5258,Health Station,No,Yes,Yes,NULL
IHS,Acoma-Canoncito-Laguna (ACL) Hospital,80 B Veterans Boulevard,Acoma,NM,87034,505-552-5300,Hospital,Yes,Yes,Yes,http://www.ihs.gov/FacilitiesServices/areaOffices/albuquerque/index.cfm?module=abq_acoma_canoncito_laguna_su
IHS,Laguna Health Center,"Interstate 40 @ Exit 108, State Road 124 ",New Laguna,NM,87049,505-552-6644,Health Center,No,Yes,No,NULL
IHS,Tohajiilee Teen Center,I-40 West/Exit 131 Hwy 56 N,Tohajiilee,NM,87026,505-831-3377,Other,Yes,No,No,NULL
IHS,Mescalero Hospital,318 Abalone Loop,Mescalero,NM,88340,575-464-4441,Hospital,Yes,Yes,Yes,http://www.ihs.gov/FacilitiesServices/areaOffices/albuquerque/index.cfm?module=abq_mescalero_su
IHS,Santa Fe Hospital,1700 Cerrillos Road,Santa Fe,NM,87501,505-988-9821,Hospital,Yes,Yes,Yes,http://www.ihs.gov/FacilitiesServices/areaOffices/albuquerque/index.cfm?module=abq_santa_fe_su
IHS,Santa Clara Health Center,RR5 Box 446,Espanola,NM,87532,505-753-9421,Health Center,Yes,Yes,Yes,NULL
IHS,Cochiti Health Station,255 Cochiti St,Cochiti Pueblo,NM,87072,505-465-2587,Health Station,Yes,Yes,No,NULL
IHS,San Felipe Health Station,127 Hagen Road,San Felipe,NM,87001,505-867-2739,Health Station,No,No,Yes,NULL
IHS,Santa Fe Indian School,1501 Cerrillos Road,Santa Fe,NM,87505,505-989-6300,School Health Center,No,No,No,NULL
IHS,Zuni Comprehensive Community Health Center,Route 301 North “B” Street,Zuni,NM,87327,505-782-4431,Hospital,Yes,Yes,Yes,http://www.ihs.gov/FacilitiesServices/areaOffices/albuquerque/index.cfm?module=abq_zuni_ramah_su
Title 1 (Tribal),Southern Ute Health Center,123 Weeminuche,Ignacio,CO,81137,970-563-4581,Health Center,Yes,Yes,Yes,http://www.ihs.gov/FacilitiesServices/areaOffices/albuquerque/index.cfm?module=abq_southern_colorado_ute_su
IHS,Ute Mountain Health Center,"232 Rustling Willow St, Complex D",Towaoc,CO,81334,970-565-4441,Health Center,Yes,Yes,Yes,NULL
IHS,White Mesa Health Station,14 Willow Street,Towaoc,CO,81334,435-678-2261,Health Station,No,No,No,NULL
IHS,Dulce Health Center,12000 Stone Lake Rd,Dulce,NM,87528,575-759-3291,Health Center,Yes,Yes,Yes,http://www.ihs.gov/FacilitiesServices/areaOffices/albuquerque/index.cfm?module=abq_acoma_canoncito_laguna_su
IHS,Taos Picuris Health Center,1090 Goat Springs Rd,Taos Pueblo,NM,87571,575-758-4224,Health Center,Yes,Yes,Yes,NULL
IHS,Picuris Health Location,1090 Goat Springs Rd,Taos Pueblo,NM,87571,575-758-4224,Health Location,No,No,No,NULL
Title 1 (Tribal),Isleta Pueblo Health Center,31 Sagebrush St,Albuquerque,NM,87105,505-869-3200,Health Center,Yes,Yes,No,NULL
Title 5 (638),Jemez Health Center,110 Sheepsprings Rd,Jemez Pueblo,NM,87024,575-834-7413,Health Center,Yes,Yes,Yes,NULL
Title 1 (Tribal),Alamo Health Center,Indiann Service Route 54,Alamo,NM,87825,575-854-2626,Health Center,Yes,Yes,Yes,NULL
IHS,Albuquerque Indian Dental Center,9169 Coors Rd NW,Albuquerque,NM,87193,505-346-2306,Dental Clinic,No,Yes,No,NULL
Title 1 (Tribal),Pine Hill Health Center,BIA Route 125,Pine Hill,NM,87357,505-775-3271,Health Center,Yes,Yes,Yes,http://www.ihs.gov/FacilitiesServices/areaOffices/albuquerque/index.cfm?module=abq_zuni_ramah_su
Title 1 (Tribal),Ysleta Del Sur Health Station,9314 Juanchido Lane,El Paso,TX,79907,915-858-1076,Health Station,Yes,Yes,No,http://www.ihs.gov/FacilitiesServices/areaOffices/albuquerque/index.cfm?module=abq_ysleta_del_sur_su
Urban,Denver Indian Health and Family Services,"1633 Fillmore St., Suite GL-1",Denver,CO,80206,303-781-4050,Health Center,No,No,No,http://www.dihfs.org
IHS,Cass Lake Hospital,425 7th St NW,Cass Lake,MN,56633,218-335-3270,Hospital,No,No,Yes,NULL
IHS,Red Lake Hospital,24760 Hospital Drive,Red Lake,MN,56671,218-679-3712,Hospital,No,No,Yes,NULL
IHS,Ponemah Health Center,19155 Nodin St,Ponemah,MN,56666,218-679-3712,Health Center,No,No,No,NULL
IHS,White Earth Health Center,25519 State Hwy 224,White Earth,MN,56591,218-983-4300,Health Center,No,No,Yes,NULL
IHS,Pine Point Health Station,Hwy 47 & Hwy 55,Ponsford,MN,56575,218-983-4300,Health Station,No,No,No,NULL
NON-IHS,Hannahville Behavioral Health Program,N15019 Hannahville B-1 Road,Wilson,MI,49896,906-466-2782,Behavioral Health Facility,No,No,No,NULL
NON-IHS,Hannaville Health Center,N15019 Hannahville B-1 Road,Wilson,MI,49896,906-466-2782,Health Center,No,No,Yes,NULL
NON-IHS,White Earth Tribal Health Services,Hwy 224,White Earth,MN,56591,218-983-3286,Health Station,No,No,No,NULL
IHS,Billings Area Alcohol/Substance Abuse Program,2900 4th Ave North,Billings,MT,59101,N/A,NULL,No,No,No,NULL
Title 5 (638),St. Ignatius Health Center,"308 Mission Drive, 51383 Highway 93 North",St. Ignatius,MT,59865,406-676-8778,Health Center,No,No,No,NULL
IHS,Fort Belknap Hospital,669 Main Street,Harlem,MT,59526,406-353-3195,Hospital,No,No,No,http://www.ihs.gov/billings/index.cfm?module=bao_su_ftbelknap
IHS,Rocky Boy Health Center,535 Clinic Rd E,Box Elder,MT,59521,406-395-5100,Health Center,No,No,Yes,NULL
Title 5 (638),Polson Health Center,#5 4th Ave East,Polson,MT,59860,405-745-3396,Health Center,No,No,No,NULL
Title 5 (638),Flathead Tribal Health Center,"308 Mission Drive, 51383 Highway 93 North",St. Ignatius,MT,59865,406-676-8778,Health Center,No,No,No,NULL
Title 5 (638),Elmo Health Station,208 Main St,Elmo,MT,59915,406-745-3525,Health Station,No,No,No,NULL
Title 5 (638),Ronan Health Clinic,26 Round Butte Rd W,Ronan,MT,59864,406-676-8778,Health Center,No,No,No,NULL
Title 5 (638),Arlee Health Station,Arlee Health Station,Arlee,MT,59821,(406) 726-3224,Health Station,No,No,No,NULL
Title 5 (638),Hot Springs,,Hot Springs,MT,59845,406-676-8778,Health Location,No,No,No,NULL
NON-IHS,Flathead Alcohol Program,402 Mission Drive,St. Ignatius,MT,59865,406-676-8778,Other,No,No,No,NULL
Title 5 (638),Rocky Boy Tribal (Chippewa-Cree) Health Center,535 Clinic Rd E,Box Elder,MT,59521,406-395-5100,Health Center,No,No,No,http://www.ihs.gov/billings/index.cfm?module=bao_su_rockyboy
Urban,Indian Family Health Clinic,"1220 Central Avenue, #2-B",Great Falls,MT,N/A,406-268-1587 Ext 16,Health Station,No,No,No,NULL
NON-IHS,Oneida Health Center,525 Airport Rd,Oneida,WI,54155,920-869-2711,Health Center,No,No,Yes,NULL
NON-IHS,Stockbridge-Munsee Health Center,West 12802 County Hwy A,Bowler,WI,54416,715-793-5007,Health Center,No,No,Yes,NULL
NON-IHS,Oneida Chemical Dependency Outpatient Program,2640 West Point Rd,Green Bay ,WI,54313,920-869-2700 x4809,Alcohol Substance Abuse Treatment Facility,No,No,No,NULL
NON-IHS,Nekoosa Field Health Office,916 Chak-Ha-Chee Lane,Nekoosa,WI,54457,715-84-9851,Health Location,No,No,No,NULL
NON-IHS,Black River Falls Health Center,N6520 Guy Rd,Black River Falls,WI,54615,715-84-9851,Health Center,No,No,No,NULL
NON-IHS,Tomah Health Office,27374 Hwy 21,Tomah,WI,54460,715-84-9851,Health Location,No,No,No,NULL
NON-IHS,Wittenberg Field Health Office,N7240 Hwy 45,Wittenberg,WI,54460,715-84-9851,Health Location,No,No,No,NULL
NON-IHS,Nekoosa Field Health Location,916 Chack-Ha-Chee Lane,Nekoosa,WI,54457,715-84-9851,Health Location,No,No,No,NULL
NON-IHS,Stockbridge-Munsee Alcohol Program,West 12802 County Hwy A,Bowler,WI,54416,715-793-5007,Alcohol Substance Abuse Treatment Facility,No,No,No,NULL
Title 5 (638),Jack Brown Center,17091 S Muskogee,Tahlequah,OK,74464,(918) 453-5500,Alcohol Substance Abuse Treatment Facility,No,No,No,http://www.cherokee.org/Services/Health/31870/Information.aspx
Title 5 (638),Choctaw Nation Indian Hospital (Talihina),One Choctaw Way,Talihina,OK,74571,(918) 567-7000 Direct Toll Free 1-800-349-7026,Hospital,Yes,Yes,Yes,http://choctawnationhealth.com/1choctaw-nation-health-care-center.aspx
Title 5 (638),John Anderson Health Center ( Broken Bow),1300 Martin Luther King Drive,Broken Bow,OK,74728,(580) 584-2766,Health Center,No,No,No,NULL
Title 5 (638),Hugo Health Center,410 North M Street,Hugo,OK,74743,(580) 326-7561,Health Center,Yes,Yes,Yes,http://choctawnationhealth.com/hugo-clinic.aspx
Title 5 (638),McAlester Health Center,1127 S George Nigh Expy. ,McAlester,OK,74501,(918) 423-8440,Health Center,Yes,Yes,No,http://choctawnationhealth.com/mcalester-health-clinic.aspx
Title 5 (638),Rubin White Health Center,109 Kerr Ave,Poteau,OK,74953,918-649-1100,Health Center,No,Yes,Yes,NULL
Title 5 (638),Stigler Choctaw Health Center,2204 East Main Street,Stigler,OK,74462,(918) 967-9200,Health Center,Yes,Yes,Yes,NULL
Title 5 (638),Idabel Health Center,902 East Lincoln Road,Idabel,OK,74745,(580) 286-2600,Health Center,Yes,Yes,Yes,NULL
Title 5 (638),Atoka Choctaw Nation Health Center,1201 W Liberty Road,Atoka,OK,74525,(918)-567-7000,Health Center,Yes,No,Yes,http://choctawnationhealth.com/atoka-choctaw-clinic.aspx
Title 5 (638),Tishomingo Indian Health Clinic,815 E 6th St,Tishomingo,OK,73460,580-371-2361 or 877-240-2720,Health Center,Yes,Yes,No,NULL
Title 5 (638),Ardmore Health Center,2510 Chickasaw Blvd.,Ardmore,OK,73401,(580) 226-8181 or (877) 242-4347,Health Center,Yes,Yes,Yes,NULL
Title 5 (638),Durant Indian Health Clinic,1600 N Washington,Durant,OK,74701,580-920-2100,Health Center,No,No,No,NULL
IHS,Peach Springs Indian Health Center,940 Hualapai Way,Peach Springs,AZ,86434,928-669-2137,Health Center,No,No,Yes,http://www.ihs.gov/Phoenix/index.cfm?module=dsp_phx_hf_coloradoRiver
Title 1 (Tribal),Fort Mohave Health Station,1607 Plantation Dr,Mohave Valley,AZ,86440,N/A,Health Station,No,No,No,NULL
Title 1 (Tribal),Chemehuevi Health Station,1970 Palo Verde Drive ,Havasu Lake,CA,92363,(928) 669-3323,Health Station,No,No,No,NULL
IHS,Salt River Health Center,"PHARMACY C/O SRP-MIC WAREHOUSE, 10005 E. OSBORN ROAD",Scottsdale,AZ,85256,480 946-9066,Health Center,No,No,Yes,NULL
Title 1 (Tribal),Gila Bend Health Station,100 North Gila Bend Boulevard,Gila Bend,AZ,85337,928-683-2269,Health Station,No,No,Yes,NULL
IHS,Fort McDermitt Health Station,112 North Reservation Road,McDermitt,NV,89421,(775) 773-2345 x121,Health Station,No,No,No,NULL
Title 1 (Tribal),Shivwits Clinic,6709 West 3700 North,Ivins,UT,84738,N/A,Health Station,No,No,No,NULL
Title 1 (Tribal),Cedar Band Clinic,440 N Paiute Dr,Cedar City,UT,84721,N/A,Health Station,No,No,No,NULL
Title 1 (Tribal),Koosharem Clinic,826 North 100 East,Richfield,UT,84701,N/A,Health Station,No,No,No,NULL
Title 1 (Tribal),Kanosh Clinic,157 North Paiute Dr,Kanosh,UT,84637,N/A,Health Station,No,No,No,NULL
Title 1 (Tribal),Hopi Tribal Guidance Center,1 Main St,Kykotsmovi Village,AZ,86039,N/A,Other,No,No,No,NULL
Title 1 (Tribal),Elko Band Alcohol Center,515 Shoshone Circle,Elko,NV,89801,N/A,Alcohol Substance Abuse Treatment Facility,Yes,No,No,NULL
Title 5 (638),Duckwater Health Station (includes Alcohol Program),511 Duckwater Falls Rd,Duckwater,NV,89314,775-863-0222,Health Station,No,No,No,NULL
Title 5 (638),Newe Medical Clinic,400 A Newe View,Ely,NV,89301,775-289-4133,Health Center,No,No,No,NULL
Title 1 (Tribal),Goshute Health Station,195 Tribal Center Road,Ibapah,UT,84034,435-234-1194,Health Station,No,No,No,NULL
Title 1 (Tribal),Te Moak Diabetes Center,511 Sunset Street,Elko,NV,89801,(775) 738-9251,Other,No,No,No,NULL
Title 1 (Tribal),Fort Mohave Health Center,500 Merriman Avenue,Needles,CA,92363,928-346-4679,Health Center,No,No,Yes,NULL
Title 1 (Tribal),Chemehuevi Alcohol Center,1970 Palo Verde Drive ,Havasu Lake,CA,92363,760-858-5426,Alcohol Substance Abuse Treatment Facility,Yes,No,No,NULL
Title 1 (Tribal),CRIT Tribe Health Center,12033 Agency Road,Parker,AZ,85344,N/A,Health Center,No,No,No,NULL
Title 1 (Tribal),Fort Mohave Alcohol Center,500 Merriman Avenue,Needles,CA,92363,N/A,Alcohol Substance Abuse Treatment Facility,Yes,No,No,NULL
Title 1 (Tribal),Hualapai Guidance Center,921 Hualapai Way,Peach Springs,AZ,86434,N/A,Other,No,No,No,NULL
Title 1 (Tribal),Inchelium Health Center,1221 Moccasin Run,Inchelium,WA,99138,N/A,Health Center,No,No,Yes,NULL
Title 1 (Tribal),Omak Tribal Health Program,617 Benton,Omak,WA,98841,(509) 422-7455,Other,No,No,No,NULL
Title 1 (Tribal),Keller Health Station,39 Shortcut Rd,Inchelium,WA,99138,(509) 722-7006,Health Station,No,No,No,NULL
Title 5 (638),Kootenai Health Station,100 Circle Dr,Bonners Ferry,ID,83805,(208) 267-3519,Health Station,No,No,No,NULL
Title 5 (638),Muckleshoot Tribal Clinic,17500 SE 392nd St,Auburn,WA,98002,(253) 939-6648,Health Center,Yes,Yes,No,NULL
Title 5 (638),Squaxin NW Treatment Ctr (Elma),308 E Young St,Elma,WA,98584,(360) 482-2674,Alcohol Substance Abuse Treatment Facility,No,No,No,NULL
NON-IHS,Sault Saint Marie Tribal Health Center,28641 Ashmun St,Sault Ste Marie,MI,49783,906-632-5257,Health Center,No,No,No,NULL
NON-IHS,Marquette Tribal Community Health Center,"706 Chippewa Square, Suite 206",Marquette,MI,59895,906-632-5257,Health Center,No,No,No,NULL
NON-IHS,NHBP Health Clinic,4415 Byron Center SW,Wyoming,MI,49519,269-729-4422,Health Center,No,No,No,NULL
NON-IHS,Nimkee Memorial Health Center,2591 S Leaton Rd,Mt. Pleasant,MI,48858,989-775-4600,Health Center,No,No,Yes,NULL
NON-IHS,Bay Mills Ellen Marshall Memorial Center,12124 W Lakeshore Drive,Brimley,MI,49715,906-248-8315,Health Center,No,No,Yes,NULL
NON-IHS,Hessel Community Health Center,3355 N. 3 Mile Rd.,Hessel,MI,49745,906-632-5257,Health Center,No,No,No,NULL
NON-IHS,Sault Tribal Center Health Station,2864 Ashmun St,Sault St Marie,MI,49783,906-632-5257,Health Station,No,No,No,NULL
NON-IHS,Pokagon Potawatomi Health Center,57392 M-51 South,Dowagiac,MI,49047,269-782-4141 x31,Health Center,No,No,Yes,NULL
NON-IHS,Manistique Tribal Health Center,6596 W US Hwy 2,Manistique,MI,49854,906-632-5257,Health Center,No,No,No,NULL
NON-IHS,Newberry Community Health Center,4935 Zee Ba Tik Lane,Newberry,MI,49868,906-632-5257,Health Center,No,No,No,NULL
NON-IHS,Min-No-Aya-Win Health Center,927 Trettel Lane,Cloquet,MN,55720,218-879-1227,Health Center,No,No,No,NULL
IHS,Dennehotso Health Station,Highway 160,Dennehotso,AZ,86535,928-658-3377,Health Station,No,No,No,NULL
NON-IHS,Redby Health Station,N/A,Redby,MN,56670,218-679-3316,Health Station,No,No,No,NULL
NON-IHS,Watersmeet Health Center,E23970 Pow Wow Trail,Watersmeet,MI,49969,906-358-4588,Health Center,No,No,No,NULL
Urban,Helena Indian Alliance (HIA),435 N Last Chance Gulch,Helena,MT,59601,406-449-5796,Health Station,No,No,No,NULL
Urban,Missoula Indian Center (MIC),"Building #33, Fort Missoula Road",Missoula,MT,59804,406-829-9515,Health Station,No,No,No,NULL
Urban,"Indian Health Board, Billings",1127 Alderson Avenue,Billings,MT,59102,N/A,Health Station,No,No,No,NULL
Urban,"Indian Health Board, Billings - Alcohol Program",915 Broadwater Square,Billings,MT,59102,N/A,Alcohol Substance Abuse Treatment Facility,No,No,No,NULL
Urban,North American Indian Alliance,55 East Galena,Butte,MT,59701,406-782-0461,Health Station,No,No,No,NULL
Title 5 (638),Torres-Martinez Health Clinic,66-735 Martinez Road,Thermal ,CA,92274,760-397-4476 ,Health Center,Yes,Yes,No,http://www.rsbcihi.org/
IHS,Dzilth Na O-Dith-Hle Health Center,6 Road 7586 (PHS/IHS Drive),Bloomfield,NM,87413,505-960-1801,Health Center,No,Yes,Yes,http://www.ihs.gov/Navajo/index.cfm?module=nao_hcc_dzilth_na_o_dith_hle
IHS,Four Corners Regional Health Center,US Hwy 160 Navajo Route 35,Teec Nos Pos,AZ,86514,928-656-5000,Health Center,No,Yes,Yes,http://www.ihs.gov/Navajo/index.cfm?module=nao_hcc_four_corners
IHS,Toadlena Health Station,N/A,Toadlena,NM,87324,505-789-3281,Health Station,No,No,No,NULL
IHS,Sanostee Health Stattion,N/A,Sanostee,NM,87461,505-723-2484,Health Station,No,No,No,NULL
Title 5 (638),Tuba City Regional Health Care,167 N Main Street & East Elm Ave,Tuba City,AZ,86045,928-283-2501,Hospital,No,Yes,Yes,http://tchealth.org/
Title 5 (638),Dinnebito Health Station,Rocky Ridge School -10 Miles  NE of 264,Tuba City,AZ,86045,928-725-3110,Health Station,No,No,No,NULL
IHS,Many Farms Dental Center,"Highway 191, PHS/IHS Dr",Many Farms,AZ,86538,928-781-3801,Dental Clinic,No,Yes,No,NULL
Private NP,Chilchinbeto Health Clinic,N/A,Chilchinbito,AZ,86033,N/A,Health Station,No,No,No,NULL
Title 5 (638),Winslow Health Center,500 N Indiana Ave,Winslow,AZ,86047,928-289-6233,Health Center,No,No,Yes,http://wihcc.com/
Title 5 (638),Dilkon Health Center,500 N Indiana Ave,Dilkon,AZ,86047,928-657-3800,Health Center,No,Yes,No,NULL
Title 5 (638),Leupp Health Center,"Hwy 99, 28 mi NW of Winslow (PHS/IHS DRIVE)",Leupp,AZ,86035,928-686-6567,Health Center,No,No,No,NULL
Urban,"Native Americans for Community Action, Inc., Family Health Center","2717 North Steves Blvd, Suite 11",Flagstaff,AZ,86004,928-773-1245,Health Center,Yes,No,No,NULL
Title 5 (638),Montezuma Creek Clinic,East Highway 262  Next to LDS Chapel,Montezuma Creek,UT,84534,435-651-3291,Health Center,No,Yes,Yes,NULL
IHS,Claremore Hospital,101 S Moore Avenue (South Moore & Will Rogers Blvd),Claremore,OK,74017,(918) 342-6200,Hospital,Yes,Yes,Yes,http://www.ihs.gov/oklahoma/index.cfm?module=dsp_okao_su_claremore
IHS,Watonga Health Center,"Route 1, Box 34-A",Watonga,OK,73772,(580) 623-4991,Health Center,No,Yes,Yes,NULL
IHS,El Reno Health Center,1631-A East Highway 66,El Reno,OK,73036,(405) 262-7631,Health Center,Yes,Yes,Yes,NULL
Title 5 (638),Prairie Band Potawatomi Substance Abuse,11400 Road 158,Mayetta,KS,66509,(785) 966-2411,Alcohol Substance Abuse Treatment Facility,No,No,No,NULL
Title 5 (638),White Eagle Health Center,200 White Eagle Drive,Ponca City,OK,74601,(580) 765-2501,Health Center,No,Yes,Yes,NULL
Title 1 (Tribal),Perkins Family Clinic,509 East Highway 33,Perkins,OK,74059,(405) 547-2473,Health Center,No,Yes,Yes,http://www.iowanation.org/home/native-services/health-services
NON-IHS,Bad River Health Services Health Center,315 Oak St,Odanah,WI,54861,715-682-7137,Health Center,No,No,No,NULL
NON-IHS,Red Cliff Health Station,88455 Pike Rd,Bayfield,WI,54814,715-779-3707,Health Station,No,No,No,NULL
NON-IHS,St. Croix Health Center,4404 State Rd 70,Webster,WI,54893,715-793-5007,Health Center,No,No,Yes,NULL
NON-IHS,Peter Christensen Health Center,450 Old Abe Rd,Lac du Flambeau,WI,54538,715-588-4266,Health Center,No,No,No,NULL
NON-IHS,Sokaogon Chippewa Health Clinic,3163 State Hwy 55,Crandon,WI,54520,715-478-5185,Health Center,No,No,No,NULL
NON-IHS,Potawatomi Health Center,5409 Everybody's Road,Crandon,WI,54520,218-478-4300,Health Center,No,No,No,NULL
NON-IHS,Prior Lake Health Location,2330 Sioux Trail NW,Prior Lake,MN,55372,952-496-6114,Health Location,No,No,No,NULL
NON-IHS,Prarie Island Family Health Clinic,1158 Island Blvd,Welch,MN,55089,651-385-4113,Health Location,No,No,No,NULL
NON-IHS,Prairie Island Family Service Alcohol Program,1158 Island Blvd,Welch,MN,55089,651-385-4113,Alcohol Substance Abuse Treatment Facility,No,No,No,NULL
NON-IHS,Vermillion Lake Health Station,1610 Farm Rd South,Tower,MN,55790,218-757-3295,Health Station,No,No,No,NULL
NON-IHS,Red Lake Elementary School,Hwy 1,Red Lake,MN,56671,N/A,School Health Center,No,No,No,NULL
NON-IHS,Red Lake High School,P.O. Box 499,Red Lake,MN,56671,N/A,School Health Center,No,No,No,NULL
Title 1 (Tribal),Emergency Services Department,921 Hualapai Way,Peach Springs,AZ,86434,928-769-2656,"Emergency Medical Services, Fire and Animal Control",No,No,No,NULL
Title 1 (Tribal),CRIT Alcohol Substance Abuse Program,921 Hualapai Way,Parker,AZ,86434,N/A,Alcohol Substance Abuse Treatment Facility,Yes,No,No,NULL
Title 1 (Tribal),Yavapai Apache Health Station and Alcohol Center,2400 W Datsi St,Camp Verde,AZ,86322,N/A,Health Station,No,No,No,NULL
Title 5 (638),Ak Chin Health Station,48203 W Farrel Rd,Ak-Chin Village,AZ,85238,520-568-2221,Health Station,No,No,No,NULL
Title 5 (638),Komatke Health Center,17487 S Health Care Drive,Laveen,AZ,85339,520-550-6000,Health Center,No,No,Yes,NULL
Title 5 (638),Black Water Health Station,N/A,Blackwater,AZ,85228,N/A,Health Station,No,No,No,NULL
Title 5 (638),Casa Blanca Health Station,N/A,Bapchule,AZ,85221,N/A,Health Station,No,No,No,NULL
Title 5 (638),San Tan Health Station,N/A,Gilbert,AZ,85234,N/A,Health Station,No,No,No,NULL
Title 1 (Tribal),Walker River Health Center,1025 Hospital Road,Schurz,NV,89427,775-773-2345 ext 161,Health Center,No,No,Yes,http://www.ihs.gov/Phoenix/index.cfm?module=dsp_phx_hf_schurz
Urban,North American Indian Alliance - Alcohol Program,100 East Galena Street,Butte,MT,59701,406-782-0461,Alcohol Substance Abuse Treatment Facility,No,No,No,NULL
Contract Inpatient,Poplar Community Hospital,H St West & Court Ave,Poplar,MT,59255,406-768-6141,Hospital,No,No,No,NULL
Contract Inpatient,Wolf Point Trinity Hospital,315 Knapp St,Wolf Point,MT,N/A,406-653-6579,Hospital,No,No,No,NULL
Contract Inpatient,Lander Hospital,1320 Bishop Randall Drive,Lander,WY,82520,307-335-6360,Hospital,No,No,No,NULL
Title 1 (Tribal),MACT Health Board,52 South Main Street,Angels Camp,CA,95221,209-754-6262,Administration,No,No,No,http://www.macthealthboard.com/
Title 1 (Tribal),Jackson Rancheria Health Center,12140 New York Ranch Road,Jackson,CA,95642, 209-257-2400 ,Health Center,No,Yes,No,http://www.macthealthboard.com/index.html
Title 1 (Tribal),Buffalo Health Station,3 Gates Circle,Buffalo,NY,14209,716-887-4125,Health Station,No,No,No,http://www.sni.org
Title 5 (638),St. Regis Mohawk Health Service,412 State Route 37,Akwesasne,NY,13655,518-358-3141,Health Center,Yes,Yes,Yes,NULL
Title 5 (638),Partridge House,412 State Route 37,Akwesasne,NY,13655,518-358-3141,Psychiatric Inpatient,Yes,No,No,NULL
Title 5 (638),Osage Nation Sub Abuse Prog,715 Grandview,Pawhuska,OK,74056,918-287-5525,NULL,No,No,No,NULL
Title 5 (638),Social Development Center,20 White Eagle Drive,Ponca City,OK,74601,(580) 762-6617,Alcohol Substance Abuse Treatment Facility,No,No,No,NULL
Urban,Oklahoma City Indian Clinic,4913 W Reno ,Oklahoma City,OK,73127,(405) 948-4900,Health Center,Yes,Yes,Yes,www.okcic.com
Title 5 (638),Black Hawk Health Center,356 110 E 930 Rd,Stroud,OK,74079,(918) 968-9531,Health Center,Yes,No,Yes,NULL
Title 5 (638),Little Axe Health Center,15702 E State Hightway 9,Norman,OK,73026,405-447-0300,Health Center,No,No,No,NULL
Title 5 (638),Kickapoo Health Center (McLoud),407 N Highway 102,McLoud,OK,74851,(405) 964-2081,Health Center,Yes,Yes,Yes,NULL
Title 5 (638),Native American Recovery Center,420 N Kickapoo Avenue,Shawnee,OK,74801,(405)275-5270,Alcohol Substance Abuse Treatment Facility,No,No,No,NULL
Title 5 (638),Citizen Potawatomi Health Center,2307 S Gordon Cooper Dr,Shawnee,OK,74801,405-273-5236,Health Center,Yes,Yes,No,http://potawatomi.org/index.php?option=com_content&view=category&id=87:health-services&Itemid=18&layout=default
Title 5 (638),Cherokee Nation W. W. Hastings Hospital,100 South Bliss Avenue,Tahlequah,OK,74464,(918) 458-3100,Hospital,Yes,Yes,Yes,http://www.cherokee.org/Services/Health/30866/Information.aspx
Title 5 (638),Eufaula Health Center,800 Forest Ave,Eufaula,OK,74432,(918)689-2547,Health Center,No,Yes,Yes,NULL
Title 5 (638),Cherokee Nation Redbird Smith Health Center ,301 South J.T. Stites Boulevard,Sallisaw,OK,74955,(918) 775-9150 • Toll Free: 888-797-9159,Health Center,Yes,Yes,No,http://www.cherokee.org/Services/Health/30866/Information.aspx
Title 5 (638),Cherokee Nation Willma P. Mankiller Health Center,Rt 6 Box 840 ,Stilwell,OK,74960, (918) 696-8800 • Toll Free: 877-747-8800,Health Center,Yes,Yes,No,NULL
Title 5 (638),Cherokee Nation Three Rivers Health Center,1001 South 41st Street East ,Muskogee,OK,74403,(918) 781-6500,Health Center,Yes,Yes,No,NULL
IHS,Clinton Indian Health Center,10321 N 2274 Road ,Clinton,OK,73601,(580) 323-2884,Health Center,Yes,Yes,Yes,http://www.ihs.gov/oklahoma/index.cfm?module=dsp_okao_su_clinton
IHS,White Cloud Health Station,3313B Thrasher Rd,White Cloud,KS,66094,(785) 595-3450,Health Station,No,No,No,NULL
IHS,Lawton Hospital,1515 Lawrie Tatum Road,Lawton,OK,73507,(580) 354-5000,Hospital,Yes,Yes,Yes,http://lawton.oklahoma.ihs.gov/
IHS,Anadarko Health Center,115 Northeast Old Town Drive,Anadarko,OK,73005,405-247-2458,Health Center,Yes,Yes,Yes,http://lawton.oklahoma.ihs.gov/
IHS,Carnegie Health Center,212 E 4th St ,Carnegie,OK,73015,580-654-1100,Health Center,No,No,Yes,NULL
IHS,Pawnee Health Center,1201 Heritage Circle,Pawnee,OK,74058,(918) 762-2517,Health Center,Yes,Yes,Yes,http://www.ihs.gov/oklahoma/index.cfm?module=dsp_okao_su_pawnee
Title 5 (638),Cherokee Nation W.W.Hastings Hospital,100 South Bliss Avenue,Tahlequah,OK,74464,(918) 458-3100,Hospital,Yes,Yes,No,NULL
IHS,Wewoka Indian Health Center,State Highway 56 & 270 Junction,Wewoka,OK,74884,(405) 257-6282,Health Center,Yes,Yes,Yes,http://www.ihs.gov/oklahoma/index.cfm?module=dsp_okao_su_wewoka
IHS,Haskell Health Center (Lawrence),2415 Massachusetts Street,Lawrence,KS,66046,(785) 843-3750,Health Center,Yes,Yes,Yes,http://www.ihs.gov/oklahoma/index.cfm?module=dsp_okao_su_haskell
Title 5 (638),Creek Nation Community Hospital (Okemah),309 North 14th Street,Okemah,OK,74859,(918) 623-1424,Hospital,Yes,Yes,Yes,http://174.121.93.48/~healthsy/CNCH.htm
Title 5 (638),Cherokee Nation Sam Hider Community Clinic ,1015 W Washbourne Street,Jay,OK,74346,(918) 253-4271 • Toll Free: 877-293-4271,Health Center,No,No,No,http://www.cherokee.org/Services/Health/30866/Information.aspx
Title 5 (638),Okemah Health Center,309 North 14th St,Okemah,OK,74859,918-623-1424,Health Center,No,Yes,No,http://174.121.93.48/~healthsy/CNCH.htm
Title 5 (638),Okmulgee Health Center,1313 E 20th Street,Okmulgee,OK,74447,(918)758-1926,Health Center,No,Yes,Yes,http://174.121.93.48/~healthsy/OIHC.htm
Title 5 (638),Northeastern Tribal Health System,2301 S Eight Tribes Trail,Miami,OK,74354, 918-542-1655  ,Health Center,Yes,Yes,No,http://www.nthsclinic.com/
Title 5 (638),Indian Health Care Resource Health Center,550 S Peoria,Tulsa,OK,74120,(918) 588-1900,Health Center,Yes,Yes,Yes,NULL
Title 5 (638),Cherokee Nation A-MO Health Center,900 North Owen Walters Boulevard,Salina,OK,74365, (918) 434-8500 • Toll Free: 877-434-8500,Health Center,Yes,Yes,Yes,http://www.cherokee.org/Services/Health/30866/Information.aspx
Title 5 (638),Cherokee Nation Will Rogers Health Center,1020 Lenape Drive,Nowata,OK,74048,(918) 273-7500 • Toll Free: 877-373-0192,Health Center,Yes,No,No,http://www.cherokee.org/Services/Health/30866/Information.aspx
Title 5 (638),Bearskin Health Center,1 Turtle Dr,Wyandotte,OK,74370,(918) 678-2282 or 1-888-864-0725,Health Center,No,Yes,No,NULL
Title 5 (638),Cherokee Nation Bartlesville Health Clinc,501 East 5th Street,Bartlesville,OK,74003,(918) 336-0823,Health Center,Yes,No,No,http://www.cherokee.org/Services/Health/30866/Information.aspx
Title 5 (638),Cherokee Nation Vinita Health Center,525 South Wilson,Vinita,OK,74301, (918) 323-0191,Health Center,Yes,No,No,NULL
Title 5 (638),Koweta Health Center,31870 East Highway 51,Coweta,OK,74429,(918)279-3200,Health Center,Yes,Yes,Yes,http://174.121.93.48/~healthsy/Koweta%20Clinic.htm
Title 5 (638),Sapulpa Health Center,1125 E Cleaveland Ave,Sapulpa,OK,74066,(918) 224-9310,Health Center,No,Yes,Yes,http://174.121.93.48/~healthsy/SIHC.htm
Title 5 (638),Potawatomi Nation Health & Wellness Center,11400 Road 158,Mayetta,KS,66509,785-966-8302,Health Center,No,No,No,NULL
Title 1 (Tribal),Kickapoo Nation Health Center,1117 Gold Finch Road,Horton,KS,66439,(785) 486-2154,Health Center,Yes,Yes,Yes,http://ktik-nsn.gov/nation_health_center.htm
Title 5 (638),Purcell Indian Health Clinic,1438 Hardcastle Blvd,Purcell,OK,73080,405-527-4700 or 877-584-3289,Health Center,No,No,No,NULL
Title 1 (Tribal),Eagle Pass Health Center,Rosita Valley Rd,Eagle Pass,TX,78852,(830) 757-0322,Health Center,No,No,No,NULL
Urban,Urban Inter-Tribal Center of Texas,209 E Jefferson Blvd,Dallas,TX,75203,214-941-1050,Health Center,No,Yes,Yes,NULL
Urban,Hunter Health Center ,2318 East Central,Wichita,KS,67214,(316) 303-9595 ?,Health Center,Yes,Yes,No,http://www.hunterhealthclinic.org/hhchome.htm
,Native American Cardiology Program Flagstaff,"1215 N Beaver St, #201",Flagstaff,AZ,86001,N/A,Cardiology Center,No,No,No,NULL
IHS,Fort Duchesne Health Center,2 Miles South of Bottlehollow,Fort Duchesne,UT,84026,435-722-5122,Health Center,No,No,Yes,http://www.ihs.gov/Phoenix/index.cfm?module=dsp_phx_hf_uo
IHS,Hopi Health Care Center (Keams Canyon),"Hwy 264, Mile Marker 388",Polacca,AZ,86042,(928)737-6140,Hospital,No,No,Yes,http://www.ihs.gov/Phoenix/index.cfm?module=dsp_phx_hf_hopi
IHS,Elko Health Center,515 Shoshone Circle,Elko,NV,89801,775-748-1416,Health Center,No,No,No,http://www.ihs.gov/Phoenix/index.cfm?module=dsp_phx_hf_elko
IHS,Battle Mountain Health Station,N/A,Battle Mountain,NV,89820,N/A,Health Station,No,No,No,NULL
IHS,Ely Health Station,400 Newe View Dr,Ely,NV,89301,775-289-2134,Health Station,No,No,No,NULL
IHS,Parker IHS Indian Hospital,12033 Agency Road,Parker,AZ,85344,928-669-2137,Hospital,No,No,Yes,http://www.ihs.gov/Phoenix/index.cfm?module=dsp_phx_hf_coloradoRiver
NON-IHS,Ball Club Tribal Health Station,30995 Arctic Road,Deer River,MN,56636,218-335-4500,Health Station,No,No,No,NULL
NON-IHS,Bemidji Tribal Health Station,616 America Ave,Bemidji,MN,56601,218-335-4500,Health Station,No,No,No,NULL
NON-IHS,Cass Lake Tribal Health Station,6055 161st St NW,Cass Lake,MN,56633,218-335-4500,Health Station,No,No,No,NULL
NON-IHS,Wadiswant (nest) Tribal Health Location,6055 161st St NW,Cass Lake,MN,56633,218-335-4500,Health Location,No,No,No,NULL
Title 5 (638),Penobscot Health Center,23 Wabanaki Way,Indian Island,ME,4468,207-827-6101,Health Center,Yes,Yes,No,NULL
Title 5 (638),Penobscot A/SAS Program,23 Wabanaki Way,Indian Island,ME,4468,207-817-7400,Alcohol Substance Abuse Treatment Facility,Yes,No,No,NULL
Title 5 (638),Gay Head Wampanoag,20 Black Brook Road,Aquinnah,MA,2535,508-645-9265,Health Location,Yes,No,No,NULL
Title 1 (Tribal),Washoe Tribal Health Center,1559 Watasheamu Rd,Gardnerville,NV,89460,775-265-4215,Health Center,No,No,Yes,NULL
Title 1 (Tribal),Washoe Trauma Family Healing Center,1559 Watasheamu Rd,Gardnerville,NV,89460, 775-265-4215,Other,No,No,No,NULL
Title 1 (Tribal),Fallon Paiute-Shoshone Health Center,1001 Rio Vista Dr,Fallon,NV,89406,775-423-3634 X 223,Health Center,No,No,Yes,NULL
Title 1 (Tribal),Yerrington Tribal Health Center,171 Campbell Lane,Yerington,NV,89447,N/A,Health Center,No,No,No,NULL
Title 1 (Tribal),Lovelock Indian Colony Alcohol Center,201 Bowean St,Lovelock,NV,89419,(775) 273-0642,Alcohol Substance Abuse Treatment Facility,Yes,No,No,NULL
Title 1 (Tribal),Walker River Paiute Alcohol Center,1025 Hospital Road,Schurz,NV,89427,775-773-2345 x161,Alcohol Substance Abuse Treatment Facility,Yes,No,No,NULL
Title 1 (Tribal),Washoe Tribe Alcohol Center,1559 Watasheamu Rd,Gardnerville,NV,89460, 775-265-4215,Alcohol Substance Abuse Treatment Facility,No,No,No,NULL
Title 1 (Tribal),Yomba Shoshone Alcohol Center,N/A,Austin,NV,N/A,775-964-2466,Alcohol Substance Abuse Treatment Facility,Yes,No,No,NULL
Title 1 (Tribal),White Mountain Apache Rainbow Treatment Center (Alcohol Aftercare and Alcohol Programs),302 W Ponderosa St,Whiteriver,AZ,85941,N/A,Alcohol Substance Abuse Treatment Facility,Yes,No,No,NULL
Title 1 (Tribal),White Mountain Apache Behavioral Health Services (Guidance Center),249 West Ponderosa Street,Whiteriver,AZ,85941,N/A,Behavioral Health Facility,Yes,No,No,NULL
Title 1 (Tribal),Cocopah Wellness Center,W County 15 St & S Avenue G,Somerton,AZ,85350,928 627 2681,Other,No,No,No,NULL
Title 1 (Tribal),Quechan Alcohol Center,1890 - B San Pasqual Road,Winterhaven,CA,92283,760-572-4100,Alcohol Substance Abuse Treatment Facility,Yes,No,No,NULL
Title 5 (638),Owyhee Community Health Facility,US PHS Nevada HWY 225,Owyhee,NV,89832,775-757-2415,Health Center,No,No,No,http://www.ihs.gov/Phoenix/index.cfm?module=dsp_phx_hf_owyhee
IHS,Duck Valley Shoshone Paiute Alcohol Center,511 Duckwater Falls Rd,Duckwater,NV,89314,775-863-0222,Alcohol Substance Abuse Treatment Facility,Yes,No,No,NULL
Urban,"Nevada Urban Indians, Inc",1475 Terminal Way ,Reno,NV,N/A,(775) 788-7600,Behavioral Health Facility,Yes,No,No,NULL
IHS,Omak Indian Health Clinic,617 Benton St,Omak,WA,98841,(509) 422-7416,Health Station,No,Yes,No,NULL
IHS,Not-Tsoo Gah-Nee Indian Health Center,427 NW Main St,Pocatello,ID,83204,208-238-5455,Health Center,No,Yes,No,NULL
Title 5 (638),Tulalip Tribal Health Clinic,7520 Totem Beach Rd,Marysville,WA,98271,(360) 651-4515,Health Station,Yes,Yes,No,NULL
NULL,Tolt Community Clinic-Snoqualmie,4334 Tolt Ave,Carnation,WA,98014,(425) 333-6924,Health Center,No,No,No,NULL
Title 1 (Tribal),Stillaguamish Medical Clinic,902 E Maple St,Arlington,WA,98223,(360) 435-9338,Health Station,No,No,No,NULL
Title 5 (638),Sophie Trettevick Indian Health Center,"Highway 112, Clinic Road",Neah Bay,WA,98357,(360) 645-2233,Health Center,Yes,Yes,Yes,NULL
IHS,Mashpee Health Service,33 Great Neck Rd South ,Mashpee,MA,2649,508-447-0208,Health Center,No,No,No,http://www.ihs.gov/Nashville/index.cfm?module=dsp_nsh_mashpee
Title 5 (638),CIHA Wound Care,806 Acquoni Rd,Cherokee,NC,28719,828-497-9163,Other,No,Yes,No,NULL
Title 5 (638),CIHA Snowbird Health Station,50 Indian School House Road,Robbinsville,NC,28771,828-497-9163,Health Station,No,Yes,No,NULL
Title 5 (638),CIHA Murphy Clinic,288 Hilton St,Murphy,NC,28906,828-497-9163,Other,Yes,Yes,No,NULL
Title 5 (638),CIHA Murphy Clinic,328 Airport Road,Marble,NC,28905,N/A,Health Station,No,No,No,NULL
Title 5 (638),CIHA Dental Surgery,60 Hospital Road,Sylva,NC,28779,828-497-9163,Health Location,No,Yes,No,NULL
Title 5 (638),CIHA A Na Le Ni Sgi,59 Echota Church Road,Cherokee,NC,28719,828-497-9163,Behavioral Health Facility,Yes,Yes,No,NULL
Title 5 (638),Cherokee Tribal Health Service,1 Hospital Road,Cherokee,NC,28719,828-497-9163,Other,No,No,No,NULL
Title 5 (638),MS Band of Choctaw Hospital,210 Hospital Circle,Choctaw,MS,39350,601-656-2211,Hospital,Yes,Yes,No,NULL
Title 5 (638),Red Water Health Station,1930 N Pearl Street,Carthage,MS,39051,601-267-8368,Health Station,No,Yes,No,NULL
Title 5 (638),Mississippi Choctaw Indian A/SA Program,210 Hospital Circle,Choctaw,MS,39350,601-389-6291,Alcohol Substance Abuse Treatment Facility,Yes,No,No,NULL
Title 1 (Tribal),Tunica Biloxi Tribe of Louisiana Health Program,171 Melacon Rd,Marksville,LA,71351,318-253-6100,Health Location,No,No,No,NULL
Title 5 (638),Poarch Creek Health Center,5811 Jack Springs Rd,Atmore,AL,36502,251-368-9136,Health Center,Yes,Yes,Yes,NULL
Title 5 (638),Creek Poarch Band S/A Program,5811 Jack Springs Rd,Atmore,AL,36502,251-368-9136,Alcohol Substance Abuse Treatment Facility,Yes,No,No,NULL
Title 5 (638),Brighton Health Center,17201 Civic Street,Okeechobee,FL,34974,863-763-0271,Health Center,No,Yes,No,NULL
Title 5 (638),Mohegan Health Administration,5 Crow Hill Rd,Uncasville,CT,6382,860-862-6103,Health Location,No,No,No,NULL
IHS,Chinle Comprehensive Health Care Facility,"Off Highway 191, PHS/IHS Dr",Chinle,AZ,86503,(928) 674-7001,Hospital,Yes,Yes,Yes,http://www.ihs.gov/Navajo/index.cfm?module=nao_hcc_chinle
IHS,Tsaile Health Center,"Route 64 @ Indian Road 12, (NCC) (COLLEGE)",Tsaile,AZ,86556,928-724-3716,Health Center,No,Yes,Yes,NULL
Title 5 (638),Tazlina Health Clinic,N/A,Tazlina,AK,N/A,N/A,Alaska Village Clinic,No,No,No,NULL
Title 5 (638),Chickaloon Village Clinic,P.O. Box 1105,Chickaloon,AK,99764,907-745-0704,Alaska Village Clinic,No,No,No,http://www.chickaloon.org
Title 5 (638),"Behavioral Health Services Fireweed, SCF","4341 Tudor Centre Drive, Suite 300",Anchorage,AK,99508,"907-729-2500, Option #2; Toll Free 800-478-3343",Behavioral Health Facility,No,No,No,http://www.southcentralfoundation.com/services/ANPCC.ak
Title 5 (638),Eklutna Village Clinic,26339 Eklutna Village Road,Chugiak,AK,99567,907-688-6031,Health Center,No,No,No,http://www.eklutna-nsn.gov/
Title 5 (638),Chenega Bay Village Clinic,P.O. Box 8029,Chenega Bay,AK,99562,907-573-5129,Alaska Village Clinic,No,No,No,http://www.chugachmiut.org
Title 1 (Tribal),Chitina Village Clinic,P.O. Box 31,Chitina,AK,99566,907-823-2213,Alaska Village Clinic,No,No,No,http://www.chitinanative.com/
Title 5 (638),Iliamna Village Clinic,N/A,Iliamna,AK,N/A,N/A,Alaska Village Clinic,No,No,No,NULL
Title 5 (638),Takotna Village Clinic,N/A,Takotna,AK,N/A,907-298-2214,Alaska Village Clinic,No,No,No,http://www.southcentralfoundation.com
Title 5 (638),Nelson Lagoon Village Clinic,P.O. Box 40,Nelson Lagoon,AK,99571,907-989-2207,Alaska Village Clinic,No,No,No,http://www.eatribes.org
Title 5 (638),Valley Native Primary Care Center,"1830 E Parks Highway, Suite A134",Wasilla,AK,99654,907-352-6000,Health Center,Yes,No,No,http://www.southcentralfoundation.com
Title 5 (638),Akutan,P.O. Box 113,Akutan,AK,99553,907-698-2208,Health Center,No,No,No,http://www.eatribes.org/clinic.htm
Title 5 (638),Atka Villiage Clinic,P.O. Box 47047,Atka,AK,99547,907-839-2232,Alaska Village Clinic,No,No,No,http://apiai.org
Title 5 (638),Cold Bay (Anna Livingston Memorial Clinic),P.O. Box 65,Cold Bay,AK,99571,907-532-2000,Alaska Village Clinic,No,No,No,http://www.eatribes.org
Title 5 (638),Cordova (Ilanka Community Health Center),509 Chase Street,Cordova,AK,99574,907-424-3622,Health Center,No,No,No,http://www.nveyak.com
Title 5 (638),Nanwalek Village Clinic,P.O. Box 8023,Nanwalek,AK,99603,907-281-2251,Alaska Village Clinic,No,No,No,http:///www.chugachmiut.org
Title 5 (638),False Pass (Anna Hoblet Memorial Clinic),P.O. Box 49,False Pass,AK,99583,907-548-2241,Alaska Village Clinic,No,No,No,http://www.eatribes.org
Title 5 (638),Seldovia Health Center in Homer,880 East End Road,Homer,AK,99603,907-226-2228,Health Center,No,No,No,http://www.svthc.org
Title 5 (638),Kenai  (Dena'ina Health Center),"416 Frontage Road, Suite 200",Kenai,AK,99611,907-335-7300,Health Center,No,No,No,http://www.kenaitze.org
Title 5 (638),King Cove Health Clinic,P.O. Box 9,King Cove,AK,99612,907-497-2311,Health Center,No,No,No,http://www.eatribes.org
Title 5 (638),Kodiak  (Alutiiq Enwia Clinic),3449 E Rezanof Drive,Kodiak,AK,99615,907-486-9870,Health Center,No,No,Yes,http://www.kanaweb.org
Title 5 (638),McGrath Sub-Regional Health Center,P.O. Box 10,McGrath,AK,99627,907-524-3299,Health Center,Yes,No,No,http://www.southcentralfoundation.com
Title 5 (638),Newhalen Village Clinic,P.O. Box 227,Newhalen,AK,99606,907-571-1231,Alaska Village Clinic,No,No,No,http://www.bbahc.org
Title 5 (638),Nikolai Village Clinic,P.O. Box 9170,Nikolai,AK,99691,907-293-2328,Alaska Village Clinic,No,No,No,http://www.southcentralfoundation.com
Title 1 (Tribal),Little Diomede Village Clinic,P.O. Box 7059,Little Diomede,AK,99762,907-686-3311,Alaska Village Clinic,No,No,No,http://www.kawerak.org/tribalHomePages/diomede/index.html  and www.nortonsoundhealth.org
IHS,Rapid City Hospital,3200 Canyon Lake Drive,Rapid City,SD,57702,605-355-2200,Hospital,No,No,Yes,http://www.ihs.gov/Aberdeen/index.cfm?module=ab_ao_hf_rcsu
IHS,Rock Point Health Station,Hwy 191,Rock Point,AZ,N/A,928-659-4430,Health Station,No,No,No,NULL
IHS,Crownpoint Healthcare Facility,NM State Road 371 & Route 9,Crownpoint,NM,87313,(505) 786-6471,Hospital,Yes,Yes,Yes,http://www.ihs.gov/Navajo/crownpoint/
IHS,Thoreau Health Station,Hwy 371 & I-40,Thoreau,NM,87323,505-786-8250,Health Station,No,No,No,NULL
IHS,Pueblo Pintado Health Center,"43 miles west of Cuba, NM on Navajo HWY 9",Pueblo Pintado,NM,87313,505-655-3301,Health Center,No,Yes,No,NULL
Title 1 (Tribal),Fort Defiance Indian Hospital,"Hwy 12 & Bonito Dr, BLDG. FD 3002",Fort Defiance,AZ,86504,(928) 729-8000,Hospital,Yes,Yes,Yes,www.fdihb.org
Title 1 (Tribal),Nahata Dziil Health Center,Chiih'Toh Blvd,Sanders,AZ,86512,928-688-5600,Health Center,No,Yes,No,NULL
IHS,Window Rock Detention Center,N/A,Window Rock,AZ,86515,N/A,Other,No,No,No,NULL
IHS,Gallup Indian Medical Center,516 E Nizhoni Blvd,Gallup,NM,87301,505-722-1000,Hospital,No,Yes,Yes,http://www.ihs.gov/Navajo/index.cfm?module=nao_hcc_gallup
IHS,Tohatchi Health Center,07 Choosgai Drive,Tohatchi,NM,87325,505-733-8100,Health Center,No,Yes,Yes,http://www.ihs.gov/Navajo/index.cfm?module=nao_hcc_tohatchi
IHS,Fort Wingate Dental,N/A,Fort Wingate,NM,87316,505-722-1402,Dental Clinic,No,No,No,NULL
IHS,McKinley Manor,224 Nizhoni Blvd,Gallup,NM,87305,505-863-9551,Other,No,No,No,NULL
IHS,Little Sisters of the Poor,1900 E Mark Ave,Gallup,NM,87305,505-722-4121,Other,No,No,No,NULL
IHS,Red Rock Care Center,3720 Church Rock Rd,Gallup,NM,87301,505-722-2261,Other,No,No,No,NULL
IHS,Kayenta Health Center,"Highway 163, PHS/IHS Dr",Kayenta,AZ,86033,928-697-4000,Health Center,No,Yes,Yes,http://www.ihs.gov/Navajo/Kayenta/
IHS,Inscription House Health Center,Hwy 98 &  Navajo Route 1,Tonalea,AZ,86044,928-672-3000,Health Center,No,Yes,Yes,http://www.ihs.gov/Navajo/index.cfm?module=nao_hcc_inscription
Title 5 (638),Roger Saux Health Center,1214 Aalis Dr,Taholah,WA,98587,(360) 276-8211,Health Center,No,Yes,Yes,NULL
Title 5 (638),Sophie Trettevick Indian Health Center-Makah,250 Fort St,Neah Bay,WA,98357,(360) 645-2233,Health Center,No,No,No,NULL
Title 1 (Tribal),The Klamath Tribes Health & Wellness Center,330 Chiloquin Blvd,Chiloquin,OR,97624,(800) 246-7894,Health Center,No,Yes,No,NULL
Title 1 (Tribal),Takopid Health Center,2209 E 32nd St,Tacoma,WA,98404,(253) 593-0232,Health Center,Yes,Yes,No,NULL
Urban,NARA Indian Health Clinic,15 North Morris Street,Portland,OR,97227,503-230-9875,Health Center,No,No,Yes,www.naranorthwest.org/homepage_files/Page451.htm
Urban,Seattle Indian Health Board Health Center,611 12th Ave South,Seattle,WA,98114,N/A,Health Center,No,No,Yes,NULL
IHS,Santa Rosa Health Clinic,"Federal Route 15, MM 12",Santa Rosa,AZ,85634,520-361-2261 or 520-383-5570 ,Health Center,Yes,No,Yes,no
IHS,San Xavier Health Center,7900 SOUTH J STOCK ROAD,Tucson,AZ,85746,520-295-2550,Health Center,Yes,No,Yes,http://www.ihs.gov/Tucson/index.cfm?module=dsp_tuc_facs
IHS,San Simon Health Center,"W HWY 86, MM 74",Sells,AZ,85634,520-362-7007,Health Center,Yes,Yes,Yes,none
Title 1 (Tribal),Pascua Yaqui Health Center,7474 Camino de Oeste,Tucson,AZ,85757,520-670-6008,Health Center,Yes,No,No,NULL
Urban,Tucson Indian Center,97 E Congress Blvd #101,Tucson,AZ,85701,520-884-7131,Other,No,No,No,www.ticenter.org
NON-IHS,El Rio Yaqui,839 W Congress St,Tucson,AZ,85745,520-670-3707,Health Center,Yes,Yes,Yes,NULL
IHS,Woodrow Wilson Keeble Memorial Health Care Center,100 Lake Traverse Drive,Sisseton,SD,57262,605-698-7606,Health Center,No,No,Yes,http://www.ihs.gov/Aberdeen/index.cfm?module=ab_ao_hf_swsu
Title 5 (638),Karuk Community Health Clinic,64236 Second Avenue,Happy Camp,CA,96039,(530) 493-5257,Health Station,No,No,No,http://www.karuk.us/health/
IHS,Laguna-Acoma Teen Center,1-40 Exit 108 South,Casa Blanca,NM,87007,505-552-6922,Other,Yes,No,No,NULL
Title 5 (638),Grand Ronde Health & Wellness Center,9615 Grand Ronde Rd,Grand Ronde,OR,97347,(503) 879-5211,Health Center,Yes,Yes,Yes,NULL
IHS,David C Wyncoop Memorial Clinic,6203 Agency Loop Road,Wellpinit,WA,99040,(509) 258-4517,Health Center,No,Yes,No,NULL
Title 1 (Tribal),"Pit River Health Service, Inc. (Burney)",36977 Park Ave ,Burney,CA,96013,530-335-3651 ,Health Center,Yes,Yes,No,http://www.pitriverhealthservice.org/
Title 1 (Tribal),Quileute Tribal Health Facility,560 Quileute Heights,LaPush,WA,98350,(360) 374-9035,Health Center,Yes,Yes,No,NULL
Title 5 (638),Lower Elwha Tribe Health Clinic,243511 Hwy 101 West,Port Angeles,WA,98363,(360) 452-6252,Health Center,Yes,Yes,No,NULL
Title 5 (638),Roger Saux Health Center,1505 Kla-ook-wa Dr,Taholah,WA,98587,(360) 276-4405,Health Center,No,No,Yes,NULL
Title 1 (Tribal),NW Band of Shoshone Health & Human Services Administration,707 North Main,Brigham City,UT,84302,(435) 734-2286,Administration,No,No,No,NULL
Title 5 (638),Siletz Community Health Clinic,107 SE Swan,Siletz,OR,97380,(541) 444-2532,Health Center,Yes,Yes,No,NULL
Title 5 (638),Tulalip Health Center,"7627 41st Ave, NW",Marysville,WA,98271,N/A,Health Center,No,No,Yes,NULL
Title 1 (Tribal),Wadatika Health Center Burns Paiute,50 Pasigo St.,Burns,OR,97720,(541) 573-2088,Health Center,No,No,No,NULL
IHS,Warm Springs Health & Wellness,1270 Kotnum Rd,Warm Springs,OR,97761,(541) 553-1196,Health Center,No,Yes,No,NULL
IHS,White Swan Dental Clinic,80 Birdsong Lane,White Swan,WA,98952,N/A,Dental Clinic,No,Yes,No,NULL
Title 1 (Tribal),White Swan Health Clinic,80 Birdsong Lane,White Swan,WA,98952,(509) 874-2979,Health Station,No,No,No,NULL
Title 1 (Tribal),Inchelium Tribal Health Clinic,39 Shortcut Rd,Inchelium,WA,99138,(509) 634-7300,Health Station,No,Yes,No,NULL
Title 5 (638),Jamestown S'Klallam Family Health Center,77 N 5th Ave,Sequim,WA,98382,(360) 582-2880,Health Center,No,No,No,NULL
Title 5 (638),Lummi Indian Health Center (Bellingham),2592 Kwina Road,Bellingham,WA,98226,(360) 384-0464,Health Center,Yes,Yes,No,NULL
Title 5 (638),Kamiah Health Center,313 3rd St,Kamiah,ID,83536,(208) 935-0733,Health Center,Yes,Yes,No,NULL
Title 5 (638),Nimiipuu Health Center Nez Perce,111 Beaver Grade Road,Lapwai,ID,83540,(208) 843-2271,Health Center,Yes,Yes,No,www.google.com
Title 1 (Tribal),Nooksack Tribal Health Center,6760 Mission Rd,Everson,WA,98247,(360) 966-2106,Health Center,No,Yes,No,NULL
Title 5 (638),Port Gamble S'Klallam Tribe Health Facility,31912 Little Boston Road SE,Kingston,WA,98346,(360) 297-9661,Health Center,No,No,No,NULL
Title 5 (638),Shaktoolik Village Clinic,P.O. Box 09,Shaktoolik,AK,99771,907-955-3311,Alaska Village Clinic,No,No,No,http://www.nortonsoundhealth.org
Title 5 (638),Shishmaref (Katherine Miksruaq Olanna Memorial Clinic),P.O. Box 133,Shishmaref,AK,99772,907-649-2127,Alaska Village Clinic,No,No,No,http://www.nortonsoundhealth.org
Title 5 (638),Stebbins  (Taprarmiut Yungcarviat Village Clinic),P.O. Box 50,Stebbins,AK,99671,907-934-3311,Health Center,No,No,No,http://www.nortonsoundhealth.org
Title 5 (638),Saint Michael (Kathleen L. Kobuk Memorial Clinic),P.O. Box 94,Saint Michael,AK,99659,907-923-3311,Alaska Village Clinic,No,No,No,http://www.nortonsoundhealth.org
Title 5 (638),Teller Village Clinic,P.O. Box 545,Teller,AK,99778,907-664-3311,Alaska Village Clinic,No,No,No,http://www.nortonsoundhealth.org
Title 5 (638),Wales  (Toby Anungazuk Sr. Memorial Clinic),P.O. Box 530,Wales,AK,99684,907-664-3311,Alaska Village Clinic,No,No,No,http://www.nortonsoundhealth.org
Title 5 (638),White Mountain  (Natchirsvik Health Clinic),P.O. Box 29,White Mountain,AK,99784,907-638-3311,Alaska Village Clinic,No,No,No,htt://www.nortonsoundhealth.org
Title 5 (638),KNA Community Counseling Center (Aniak),P.O. Box 269,Aniak,AK,99557,907-675-4556,Behavioral Health Facility,Yes,No,No,http://www.ykhc.org 
Contract Inpatient,Bartlett Regional Hospital,3260 Hospital Drive,Juneau,AK,99801,907-796-8900,Hospital,No,No,No,http://www.bartletthospital.org
Contract Inpatient,Ketchikan General Hospital,3100 Tongass Avenue,Ketchikan,AK,99901,N/A,Hospital,Yes,Yes,No,NULL
IHS,Pinon Health Center,NR 4- 2 Miles East of Pinon,Pinon,AZ,86510,928-725-9637,Health Center,No,Yes,Yes,NULL
Title 5 (638),Alaska Native Medical Center,4315 Diplomacy Drive,Anchorage,AK,99508,907-563-2662,Hospital,Yes,Yes,No,http://www.anmc.org
Title 1 (Tribal),Saint George Village Clinic,N/A,Saint George,AK,N/A,907-859-2254,Alaska Village Clinic,No,No,No,http://www.apiai.org
Title 5 (638),Saint Paul Health Center,N/A,Saint Paul,AK,N/A,907-546-8300,Health Center,No,No,No,http://www.apiai.org
Title 5 (638),Adak Health Center,P.O. Box 2105,Adak,AK,99546,907-592-8383,Health Center,No,No,No,NULL
Title 5 (638),Iliamna  (Nilavena Subregional Clinic),101 Airport Road,Iliamna,AK,99606,907-571-1818,Health Center,No,No,No,http://www.southcentralfoundation.com
Title 5 (638),Nikolski Village Clinic,P.O. Box 100,Nikolski,AK,99638,907-576-2204,Alaska Village Clinic,No,No,No,http://www.apiai.org
Title 5 (638),Nondalton Village Clinic,P.O. Box 69,Nondalton,AK,99640,907-294-2238  or  907-294-2268,Alaska Village Clinic,No,No,No,http://www.bbahc.org 
Title 5 (638),Pauloff Harbor,N/A,Pauloff Harbor,AK,N/A,N/A,Other,No,No,No,NULL
Title 5 (638),Pedro Bay Village Clinic,P.O. Box 47025,Pedro Bay,AK,99647,907-850-2229,Alaska Village Clinic,No,No,No,http://www.bbahc.org
Title 5 (638),Port Graham Village Clinic,General Delivery,Port Graham,AK,99603,907-562-4155 or toll free in AK 1-800-478-4155,Alaska Village Clinic,No,No,No,http://www.chugachmiut.org
Title 5 (638),Sand Point Health Center,527 Red Cove Road,Sand Point,AK,99661,907-383-3451,Health Center,No,No,No,http://eatribes.org
Title 5 (638),Seldovia Medical Clinic,206 Main Street,Seldovia,AK,99663,907-435-3262,Health Center,No,No,No,http://www.svthc.org
Title 5 (638),Seward  (North Star Health Clinic),201 3rd Avenue,Seward,AK,99664,907-224-3076  or 1-800-224-3076,Health Center,No,Yes,No,http://www.chugachmiut.org
Title 5 (638),Tatitlek Village Clinic,411 Old Village Road,Tatitlek,AK,99677,907-325-2235,Alaska Village Clinic,No,No,No,http://www.chugachmiut.org
Title 5 (638),Unalaska  (Oonalaska Wellness Center),205 Broadway,Unalaska,AK,99685,907-581-1202,Alcohol Substance Abuse Treatment Facility,No,No,No,http://www.apiai.org
Title 1 (Tribal),Valdez Clinic,P.O. Box 1108,Valdez,AK,99686,907-835-2249,Alaska Village Clinic,No,No,No,http://www.chugachmiut.org/tribes/valdez.html
Title 5 (638),Copper Center Village Clinic,P.O. Box 68,Copper Center,AK,99573,907-822-3541,Alaska Village Clinic,No,No,No,http://www.crnative.org
Title 5 (638),Copper River Substance Abuse,104 Old Richardson Highway,Copper Center,AK,99573,907-822-5241,Alcohol Substance Abuse Treatment Facility,Yes,No,No,http://www.crnative.org
Title 5 (638),Akhiok Village Built Clinic,PO Box 5009,Akhiok,AK,99615,907-836-2230,Alaska Village Clinic,No,No,No,NULL
Title 5 (638),Kokhanok Village Clinic,P.O. Box 1008,Kokhanok,AK,99606,907-282-2203,Alaska Village Clinic,No,No,No,http://www.bbahc.org
Title 1 (Tribal),Karluk Village Clinic,N/A,Karluk,AK,N/A,907-241-2212,Alaska Village Clinic,No,No,No,NULL
Title 5 (638),Larsen Bay Village Clinic,P.O. Box 127,Larsen Bay,AK,99624,907-847-2208,Alaska Village Clinic,No,No,No,http://www.kanaweb.org
Title 5 (638),Old Harbor Village Clinic,P.O. Box 72,Old Harbor,AK,99643,907-286-2205  or  907-286-2307,Alaska Village Clinic,No,No,No,http:///www.kanaweb.org
Title 5 (638),Ouzinkie Village Clinic,P.O. Box 149,Ouzinkie,AK,99644,907-680-2265  or  907-680-2262,Alaska Village Clinic,No,No,No,http://www.kanaweb.org
Title 5 (638),Port Lions Village Clinic,N/A,Port Lions,AK,N/A,907-454-2275,Alaska Village Clinic,No,No,No,http://www.kanaweb.org
Title 1 (Tribal),Tyonek Village Clinic,73 C Street,Tyonek,AK,99682,907-583-2461,Alaska Village Clinic,No,No,No,NULL
Title 5 (638),Chistochina Village Clinic,P.O. Box 241,Chistochina,AK,99586,907-822-3280,Alaska Village Clinic,No,No,No,http://www.mstc.org
Title 5 (638),Gakona/Gulkana Village Clinic,N/A,Gakona,AK,N/A,907-822-5241,Alaska Village Clinic,No,No,No,NULL
Title 1 (Tribal),Ninilchik Community Clinic,P.O. Box 39368,Ninilchik,AK,99639,907-567-3970,Health Center,Yes,No,No,http://www.ninilchiktribe-nsn.gov
Title 5 (638),Cantwell Village Clinic,P.O. Box 56,Cantwell,AK,99729,907-768-2122,Alaska Village Clinic,No,No,No,http://www.crnative.org
Title 5 (638),Mentasta Village Clinic,P.O. Box 6019,Mentasta Lake,AK,99780,907-291-2320,Alaska Village Clinic,No,No,No,http://www.mstc.org
Title 5 (638),Samuel Simmonds Memorial Hospital ,1296 Agvik Street,Barrow,AK,99723,907-852-4611,Hospital,No,No,No,http://www.arcticslope.org/ 
NON-IHS,Wainwright Health Clinic,P.O. Box 9,Wainwright,AK,99782,907-763-2714,Alaska Village Clinic,No,No,No,http://www.north-slope.org
NON-IHS,Kaktovik Village Clinic,N/A,Kaktovik,AK,N/A,907-640-6413,Alaska Village Clinic,No,No,No,www.north-slope.org
NON-IHS,Nuiqsut Health Clinic ,P.O. Box 148,Nuiqsut,AK,99789,907-480-6720,Alaska Village Clinic,No,No,No,http://www.north-slope.org
NON-IHS,Point Lay Village Clinic,N/A,Point Lay,AK,N/A,907-833-2526,Alaska Village Clinic,No,No,No,http://www.north-slope.org
NON-IHS,Atqasuk Health Clinic,4002 Qalgaq Street,Atqasuk,AK,99791,907-633-6711,Alaska Village Clinic,No,No,No,http://www.north-slope.org/
Title 5 (638),Crisis Respite Center,N/A,Bethel,AK,N/A,907-543-6100,Behavioral Health Facility,Yes,No,No,http://www.ykhc.org
Title 5 (638),Emmonak Mental Health Clinic,N/A,Emmonak,AK,99581,907-949-3500,Behavioral Health Facility,Yes,No,No,http://www.ykhc.org
Title 5 (638),YKHC Mental Health Clinic,P.O. Box 69,Kwigillingok,AK,99622,907-588-8813,Behavioral Health Facility,Yes,No,No,http://www.ykhc.org
Title 5 (638),Phillips Ayagnirvik Residential Treatment,324 Radio Way,Bethel,AK,99559,907-543-6000,Behavioral Health Facility,Yes,No,No,http://www.ykhc.org
Title 5 (638),Yukon-Kuskokwim-Delta Regional Hospital,700 Eddie Hoffman HIghway,Bethel,AK,99559,907-543-6300,Hospital,Yes,Yes,Yes,http://www.ykhc.org
Title 5 (638),Hooper Bay Sub-Regional Clinic,P.O. Box 49,Hooper Bay,AK,99604,907-758-3500,Health Center,No,No,No,http://www.ykhc.org
Title 5 (638),Alakanuk Village Clinic,P.O. Box 288,Alakanuk,AK,99554,907-238-3210,Alaska Village Clinic,No,No,No,NULL
Title 5 (638),Aniak Subregional Clinic,P.O. Box 269,Aniak,AK,99557,907-675-4556,Health Center,Yes,Yes,No,http://www.ykhc.org
Title 1 (Tribal),Akiachak Village Clinic,P.O. Box 51089,Akiachak,AK,99551,907-825-4011,Alaska Village Clinic,No,No,No,NULL
Title 5 (638),Akiak,P.O. Box 216,Akiak,AK,99552,907-765-7125,Alaska Village Clinic,No,No,No,http://www.ykhc.org
Title 5 (638),Atmautluak Community Health Clinic,P.O. Box 6588,Atmautluak,AK,99559,907-553-5114,Alaska Village Clinic,No,No,No,http://www.ykhc.org
Title 5 (638),Napaskiak Village Clinic,P.O. Box 6044,Napaskiak,AK,99559,907-737-7329,Alaska Village Clinic,No,No,No,http://www.ykhc.org
Title 5 (638),Anvik Village Clinic,P.O. Box 89,Anvik,AK,99558,907-663-6334,Alaska Village Clinic,No,No,No,http://www.ykhc.org 
Title 5 (638),Chevak Community Health Clinic,P.O. Box 212,Chevak,AK,99563,907-858-7069,Alaska Village Clinic,No,No,No,http://www.ykhc.org
Title 5 (638),Chefornak Community Health Clinic,P.O. Box 49,Chefornak,AK,99561,907-867-8919,Alaska Village Clinic,No,No,No,http://www.ykhc.org
Title 5 (638),Crooked Creek Villiage Clinic,P.O. Box 49,Crooked Creek,AK,99575,907-432-2222,Alaska Village Clinic,No,No,No,http://www.ykhc.org
Title 5 (638),Eek Community Health Clinic,P.O. Box 69,Eek,AK,99578,907-536-5314,Alaska Village Clinic,No,No,No,http://www.ykhc.org
Title 5 (638),Emmonak  (Pearl E. Johnson Sub-Regional Clinic),P.O. Box 246,Emmonak,AK,99581,907-949-3500,Health Center,No,No,No,http://www.ykhc.org
Title 5 (638),Grayling Village Clinic,General Delivery,Grayling,AK,99590,907-453-5120,Alaska Village Clinic,No,No,No,http://www.ykhc.org
Title 5 (638),Holy Cross Village Clinic,P.O. Box 17,Holy Cross,AK,99602,907-476-7174,Alaska Village Clinic,No,No,No,http://www.ykhc.org
Title 5 (638),Upper Kalskag  (Catherine Alexie Clinic),General Delivery,Kalskag,AK,99607,907-471-2276,Alaska Village Clinic,Yes,No,No,http://www.ykhc.org
Title 5 (638),Kasigluk Community Health Clinic,N/A,Kasigluk,AK,N/A,907-477-6211,Alaska Village Clinic,No,No,No,http://www.ykhc.org
Title 5 (638),Kipnuk Village Clinic,P.O. Box 183,Kipnuk,AK,99614,907-896-5334,Alaska Village Clinic,No,No,No,NULL
Title 5 (638),Kongiganak (Lillian E. Jimmy Memorial Clinic),P.O. Box 5089,Kongiganak,AK,99545,907-557-5127,Alaska Village Clinic,No,No,No,http://ykhc.org
Title 5 (638),Kwethluk  (Sarah S. NIcholai Memorial Clinic),P.O. Box 69,Kwethluk,AK,99621,907-757-6627,Alaska Village Clinic,No,No,No,http://www.ykhc.org
Title 5 (638),Kwigillingok Community Health Clinic,N/A,Kwigillingok,AK,N/A,907-588-8813,Alaska Village Clinic,No,No,No,http://www.ykhc.org
Title 5 (638),Barstow Outreach Office,"705 E. Virginia Way, Suite A",Barstow,CA,92311,(760) 256-9016,Health Station,No,No,No,http://www.rsbcihi.org 
Title 1 (Tribal),Central Valley Indian Health Clinic,20 N. DeWitt Avenue,Clovis,CA,93612, 559-299-2578 ,Health Center,No,Yes,No,http://cvih.org/home.html
Title 1 (Tribal),Chapa-De Indian Health Program,11670 Atwood Road,Auburn,CA,95603,530-887-2800,Health Center,Yes,Yes,Yes,http://www.chapa-de.org/
Title 1 (Tribal),Grass Valley Clinic,1350 East Main Street,Grass Valley,CA,95945,530-477-8545,Health Center,Yes,Yes,No,http://www.chapa-de.org/
IHS,Dunseith Health Location,215 Main Street NE,Dunseith,ND,58329,701-477-6111,Health Station,No,No,No,NULL
Title 1 (Tribal),"Feather River Tribal Health, Inc.",2145 5th Ave,Oroville,CA,95965, 530-534-5394 ,Health Center,Yes,Yes,Yes,http://www.frth.org/
IHS,Fort Thompson Health Center,1323 BIA Route 4,Fort Thompson,SD,57339,605-245-1500,Health Center,No,No,Yes,http://www.ihs.gov/aberdeen/index.cfm?module=ab_ao_hf_ccsu
Title 1 (Tribal),Fortuna Health Center,940 Main Street,Fortuna,CA,95540,707-725-7988 ,Health Station,No,No,No,http://www.uihs.org 
Urban,Fresno American Indian Health Project,"1535 E Shaw Ave, Suite #105",Fresno,CA,93710,559-320-0490 ,Health Station,No,No,No,http://www.uaii.org/uaiiinc_012.htm
Title 1 (Tribal),Howonquet Health Station,501 North Indian Road,Smith River,CA,95567,707-487-0215 ,Health Center,No,Yes,No,http://www.uihs.org 
Urban,Indian Health Center of Santa Clara Valley,1333 Meridian Ave,San Jose,CA,95125,(408) 445-3400,Health Center,Yes,Yes,No,http://www.indianhealthcenter.org/
Title 1 (Tribal),Klamath Health Center,241 Salmon Avenue,Klamath,CA,95548,707-482-2181 ,Health Station,No,No,No,http://www.uihs.org 
IHS,Kyle Health Center,1000 Health Center Road,Kyle,SD,57752,605-455-2451,Health Center,No,No,No,http://www.ihs.gov/aberdeen/index.cfm?module=ab_ao_hf_prsu
Title 5 (638),Lassen Indian Health Center,795 Joaquin Street,Susanville,CA,96130,530-257-2542,Health Center,No,No,Yes,http://www.ihs.gov/California/Universal/PageMain.cfm?p=231&ProgramNbr=9
Title 5 (638),Lower Kalskag (Crimet Phillips Sr. Clinic),P.O. Box 97,Lower Kalskag,AK,99626,907-471-2294,Alaska Village Clinic,Yes,No,No,http://www.ykhc.org
Title 5 (638),Marshall (Agnes Boliver Health Clinic),P.O. Box 10,Marshall,AK,99585,907-679-6626,Alaska Village Clinic,Yes,No,No,http://www.ykhc.org
Title 5 (638),Mekoryuk Village Clinic,P.O. Box 43,Mekoryuk,AK,99630,907-827-8111,Alaska Village Clinic,No,No,No,http://www.ykhc.org
Title 5 (638),Mountain Village Clinic,P.O. Box 32207,Mountain Village,AK,99632,907-591-2620,Alaska Village Clinic,Yes,No,No,http://www.ykhc.org
Title 5 (638),Napakiak Village Clinic,P.O. Box 70,Napakiak,AK,99634,907-589-2711,Alaska Village Clinic,No,No,No,http://www.ykhc.org
Title 5 (638),Newtok Village Clinic,P.O. Box 5508,Newtok,AK,99559,907-237-2111,Alaska Village Clinic,No,No,No,http://www.ykhc.org
Title 5 (638),Nightmute Village Clinic,P.O. Box 90011,Nightmute,AK,99690,907-647-6312,Alaska Village Clinic,No,No,No,http://www.ykhc.org
Title 5 (638),Nunapitchuk Village Clinic ,P.O. Box 50,Nunapitchuk,AK,99641,907-527-5227,Alaska Village Clinic,Yes,No,No,http://www.ykhc.org
Title 5 (638),Oscarville Village Clinic,P.O. Box 649,Oscarville,AK,99559,907-737-7231,Alaska Village Clinic,No,No,No,http://www.ykhc.org
Title 5 (638),Pilot Station Village Clinic,General Delivery,Pilot Station,AK,99650,907-549-3127,Alaska Village Clinic,No,No,No,NULL
Title 5 (638),Pitkas Point Village Clinic,General Delivery,PItka's Point,AK,99658,907-543-6137 or 907-438-2546 ,Alaska Village Clinic,No,No,No,NULL
Title 1 (Tribal),Quinhagak Village Clinic,N/A,Quinhagak,AK,N/A,907-556-8320,Alaska Village Clinic,No,No,No,http://www.kwinhagak.org and http://www.ykhc.org
Title 5 (638),Chuathbaluk Health Clinic,P.O. Box CHU,Chuathbaluk,AK,99557,907-467-4114,Alaska Village Clinic,No,No,No,http://www.ykhc.org
Title 5 (638),Russian Mission-Yukon Village Clinic,General Delivery,Russian Mission,AK,99657,907-584-5611,Alaska Village Clinic,No,No,No,http://www.ykhc.org
Title 5 (638),Saint Mary's Sub-Regional Clinic,P.O. Box 130,Saint Mary's,AK,99658,907-438-3500,Health Center,No,No,No,http://www.ykhc.org
Title 5 (638),Scammon Bay Health Clinic,P.O. Box 150,Scammon Bay,AK,99662,907-675-4556,Alaska Village Clinic,No,No,No,http://www.ykhc.org
Title 5 (638),Nunam Iqua Village Clinic,P.O. Box 29,Nunam Iqua,AK,99666,907-498-4228,Alaska Village Clinic,No,No,No,http://www.ykhc.org
Title 5 (638),Sleetmute Village Clinic,P.O. Box 43,Sleetmute,AK,99668,907-449-4229,Alaska Village Clinic,No,No,No,http://www.ykhc.org
Title 5 (638),Stony River Village Clinic,P.O. Box 54,Stony River,AK,99557,907-537-3228,Alaska Village Clinic,No,No,No,http://www.ykhc.org
Title 5 (638),Toksook Bay Sub-Regional Clinic,P.O. Box 37028,Toksook Bay,AK,99637,907-427-3500,Health Center,No,No,No,http://www.ykhc.org
Title 5 (638),Tuluksak Village Clinic,P.O. Box 194,Tuluksak,AK,99679,907-695-6991,Alaska Village Clinic,No,No,No,http://www.ykhc.org
Title 5 (638),Tuntutuliak Village Clinic,N/A,Tuntutuliak,AK,N/A,907-256-2718,Alaska Village Clinic,No,No,No,http://www.ykhc.org
Title 5 (638),Tununak Village Clinic,General Delivery,Tununak,AK,99681,907-675-4556,Alaska Village Clinic,No,No,No,http://www.ykhc.org
Title 5 (638),Togiak Sub-Regional Clinic,General Delivery,Togiak,AK,99678,907-493-5511,Health Center,No,No,No,http://www.bbahc.org
Title 5 (638),Twin Hills Village Clinic,521 Main Street,Twin HIlls,AK,99576,907-525-4326,Alaska Village Clinic,No,No,No,http://www.bbahc.org
Title 5 (638),Ivanof Bay Village Clinic,N/A,Ivanof Bay,AK,N/A,Perryville 907-853-2202 OR Chignik Bay Clinic 907-749-2282,Alaska Village Clinic,No,No,No,NULL
Title 5 (638),Igiugig Village Clinic,P.O. Box 4030,Igiugig,AK,99613,907-533-3207,Alaska Village Clinic,No,No,No,http://www.bbahc.org
Title 5 (638),King Salmon Village Clinic,N/A,King Salmon,AK,N/A,907-246-3322,Alaska Village Clinic,No,No,No,http://www.bbahc.org
Title 5 (638),Portage Creek Village Clinic,N/A,Portage Creek,AK,N/A,Ekwok 907-464-3322 OR Kanakak Hospital in DIllingham 907-842-5201,Alaska Village Clinic,No,No,No,http://www.bbahc.org
Title 5 (638),Ugashik Village Clinic,N/A,Ugashik,AK,N/A,Pilot Point Clinic  907-797-2212 or 797-2248,Alaska Village Clinic,No,No,No,http://www.bbahc.org
Title 5 (638),Lake Street House (Kotzebue),818 Lake Street,Kotzebue,AK,99752,907-442-2224,Behavioral Health Facility,Yes,No,No,http://www.maniilaq.org
Title 5 (638),Maniilaq Health Center (Hospital),436 5th Avenue,Kotzebue,AK,99752,907-442-3321; toll free in AK 1-800-478-3321,Hospital,Yes,Yes,Yes,http://www.maniilaq.org
Title 5 (638),Noorvik Village Clinic,P.O. Box 189,Noorvik,AK,99763,907-636-2103,Alaska Village Clinic,No,No,No,http://www.maniilaq.org
Title 1 (Tribal),Parshall Clinic,107 3rd Street Southeast,Parshall,ND,58770,701-627-4701,Health Station,No,No,No,NULL
Title 5 (638),Pechanga Indian Health Center,12784 Pechanga Rd,Temecula,CA,92390,(951) 676-6810,Health Center,Yes,No,No,http://www.rsbcihi.org 
Urban,Pierre Urban Indian Clinic,1701 Abbey Rd,Pierre,SD,57501,605-224-8841,Health Station,No,No,No,NULL
IHS,Pine Ridge Hospital,Hwy 18 East,Pine Ridge,SD,57770,605-867-5131,Hospital,No,No,Yes,http://www.ihs.gov/aberdeen/index.cfm?module=ab_ao_hf_prsu
IHS,Porcupine Clinic,101 Main Street,Porcupine,SD,57772,605-867-5131,Other,No,No,No,NULL
Title 1 (Tribal),"Central Valley Indian Health, Prather Clinic","29369 Auberry Road, Suite 102",Prather,CA,93651,559-855-5395,Health Center,Yes,Yes,No,http://cvih.org/home.html
IHS,Quentin N Burdick Memorial Health Facility,1st Main Street Hospital Road,Belcourt,ND,58316,701-477-6111,Hospital,No,No,Yes,http://www.ihs.gov/Aberdeen/index.cfm?module=ab_ao_hf_tmsu
Title 1 (Tribal),Red Bluff Clinic,1425 Montgomery Road,Red Bluff,CA,96080,530-284-6135 ,Health Center,No,Yes,No,http://www.greenvillerancheria.com/
Title 5 (638),Redding Rancheria Indian Health Clinic,3184 Churn Creek Rd ,Redding,CA,96002,530-224-2700 ,Health Center,Yes,No,Yes,http://www.redding-rancheria.com/clinic.php
IHS,Rosebud Hospital,"BIA Route 1, Solder Creek Road",Rosebud,SD,57570,605-747-2231,Hospital,No,No,Yes,http://www.ihs.gov/Aberdeen/index.cfm?module=ab_ao_hf_rbsu
Title 1 (Tribal),Round Valley Indian Health Center,Hwy 162 & Biggar Lane,Covelo,CA,95428,707-983-6404 ,Health Center,No,Yes,No,http://www.rvindianhealth.com/
Urban,Sacramento Native American Health Center ,2020 J Street,Sacramento,CA,95811,916-341-0575 ,Health Center,Yes,Yes,No,http://www.SNAHC.org 
Title 1 (Tribal),San Andreas Community Clinic,265 West St. Charles Street,San Andreas,CA,95249, 209-755-1400 ,Health Center,No,No,No,http://www.macthealthboard.com/
Urban,San Diego American Indian Health Center,2630 First Ave ,San Diego,CA,92103,619-234-2158 ,Health Center,Yes,Yes,No,http://www.sdaihc.com 
Title 5 (638),San Manuel Health Clinic,2210 E Highland Ave. Suite # 200,San Bernardino,CA,92404,909-864-1097 ,Health Center,Yes,Yes,No,http://www.rsbcihi.org/
Title 1 (Tribal),Santa Ynez Tribal Health Clinic,90 Via Juana Lane,Santa Ynez ,CA,93460,805-688-7070 ,Health Center,Yes,Yes,No,http://www.sythc.com 
Urban,Sioux Falls Urban Indian Clinic,711 N Lake Ave,Sioux Falls,SD,57104,605-339-0420,Health Station,No,No,No,NULL
Title 5 (638),Soboba Health Clinic,607 Donna Way,San Jacinto,CA,92583,951-654-0803 ,Health Station,Yes,Yes,No,http://www.rsbcihi.org/
Title 5 (638),Kotlik Community Health Clinic,P.O. Box 20268,Kotlik,AK,99620,907-899-4511,Alaska Village Clinic,No,No,No,http://www.ykhc.org
Title 5 (638),Shageluk Village Clinic,P.O. Box 54,Shageluk,AK,99665,907-473-8231,Alaska Village Clinic,No,No,No,NULL
Title 5 (638),Lime Village Clinic,N/A,Lime Village,AK,N/A,907-543-6000,Alaska Village Clinic,No,No,No,http://www.ykhc.org
Title 5 (638),Red Devil Village Clinic,N/A,Red Devil,AK,N/A,907-447-3243,Alaska Village Clinic,No,No,No,http://www.ykhc.org
Title 5 (638),Kanakanak Hospital,6000 Kanakanak Road,Dillingham,AK,99576,907-842-5201,Hospital,Yes,Yes,No,http://www.bbahc.org
Title 5 (638),Aleknagik North Shore Village Clinic,P.O. Box 73,Aleknagik,AK,99555,907-842-5512,Alaska Village Clinic,No,No,No,http://www.bbahc.org
Title 5 (638),Aleknagik South Shore Village Clinic,1 South Shore Road,Aleknagik,AK,99555,907-842-2185,Alaska Village Clinic,No,No,No,http://www.bbahc.org
Title 5 (638),Chignik Bay Subregional Clinic,P.O. Box 90,Chignik Bay,AK,99564,907-749-2282,Health Center,No,No,No,http://www.bbahc.org
Title 5 (638),Chignik Lagoon Village Clinic,P.O. Box 25,Chignik Lagoon,AK,99565,907-840-2218,Alaska Village Clinic,No,No,No,http://www.bbahc.org
Title 5 (638),Chignik Lake Village Clinic,P.O. Box 24,Chignik Lake,AK,99548,907-845-2236,Alaska Village Clinic,No,No,No,http://www.bbahc.org
Title 5 (638),Clarks Point Village Clinic,P.O. Box 49,Clarks Point,AK,99569,907-236-1232,Alaska Village Clinic,No,No,No,http://www.bbahc.org
Title 5 (638),Egegik Village Clinic,N/A,Egegik,AK,N/A,907-233-2229,Alaska Village Clinic,No,No,No,http://www.bbahc.org
Title 5 (638),Ekuk Village Clinic,N/A,Ekuk,AK,N/A,Clarks Point Clinic  907-236-1232,Alaska Village Clinic,No,No,No,http://www.bbahc.org
Title 5 (638),Ekwok Village Clinic,P.O. Box 11,Ekwok,AK,99580,907-464-3322,Alaska Village Clinic,No,No,No,http://www.bbahc.org
Title 5 (638),Goodnews Bay Village Clinic,N/A,Mumtrak,AK,N/A,907-967-8128,Alaska Village Clinic,No,No,No,http://www.bbahc.org
Title 5 (638),Koliganek Village Clinic,P.O. Box 5061,Koliganek,AK,99576,907-596-3431,Alaska Village Clinic,No,No,No,http://www.bbahc.org
Title 5 (638),Levelock Village Clinic,P.O. Box 49,Levelock,AK,99625,907-287-3011,Alaska Village Clinic,No,No,No,http://www.bbahc.org
Title 5 (638),Manokotak Village Clinic,P.O. Box 129,Manokotak,AK,99628,907-289-1077 or 907-289-1011,Alaska Village Clinic,No,No,No,http://www.bbahc.org
Title 5 (638),Naknek Village Clinic,1 Naknek Road,Naknek,AK,99633,907-246-4214,Alaska Village Clinic,No,No,No,http://www.bbahc.org
Title 5 (638),New Stuyahok Village Clinic,P.O. Box 109,New Stuyahok,AK,99636,907-693-3131  or 907-693-3201,Alaska Village Clinic,No,No,No,http://www.bbahc.org
Title 5 (638),Perryville Village Clinic,General Delivery,Perryville,AK,99648,907-853-2202,Alaska Village Clinic,No,No,No,http://www.bbahc.org
Title 5 (638),Pilot Point Village Clinic,General Delivery,Pilot Point,AK,99649,907-797-2212   or 907-797-2248,Alaska Village Clinic,No,No,No,http://www.bbahc.org
Title 5 (638),Platinum Village Clinic,General Delivery,Platinum,AK,99651,907-979-8100,Alaska Village Clinic,No,No,No,NULL
Title 5 (638),Port Heiden Village Clinic,General Delivery,Port Heiden,AK,99549,907-842-5201 or toll free in AK 1-800-478-5201,Alaska Village Clinic,No,No,No,http://www.bbahc.org
Title 5 (638),South Naknek Village Clinic,1 South Naknek Road,South Naknek,AK,99670,907-246-6546,Alaska Village Clinic,No,No,No,http://www.bbahc.org
Title 5 (638),Selawik Village Clinic,P.O. Box 180,Selawik,AK,99770,907-484-2199,Alaska Village Clinic,No,No,No,http://maniilaq.org
Title 5 (638),Ambler Village Clinic,P.O. Box 110,Ambler,AK,99786,907-445-2129,Alaska Village Clinic,No,No,No,NULL
Title 5 (638),Buckland Village Clinic,P.O. Box 9,Buckland,AK,99786,907-494-2122,Alaska Village Clinic,No,No,No,http://www.maniilaq.org
Title 5 (638),Deering Village Clinic,P.O. Box 23,Deering,AK,99736,907-363-2137,Alaska Village Clinic,No,No,No,http://www.maniilaq.org
Title 5 (638),Kiana Village Clinic,P.O. Box 130,Kiana,AK,99749,907-475-7052,Alaska Village Clinic,No,No,No,http://www.maniilaq.org
Title 5 (638),Kivalina Village Clinic,P.O. Box 8,Kivalina,AK,99750,907-645-2141,Alaska Village Clinic,No,No,No,http://www.maniilaq.org
Title 5 (638),Kobuk Village Clinic,P.O. Box 3,Kobuk,AK,99751,907-948-2218,Alaska Village Clinic,No,No,No,http://www.maniilaq.org
Title 5 (638),Noatak Village Clinic,P.O. Box 90,Noatak,AK,99761,907-485-2162,Alaska Village Clinic,No,No,No,http://www.maniilaq.org
Title 5 (638),Point Hope Village Clinic CHA/P Services,P.O. Box 49,Point Hope,AK,99766,907-368-2234,Alaska Village Clinic,No,No,No,http://maniilaq.org
Title 5 (638),Haines  (Lynn Canal Counseling Services),77 Beach Road,Haines,AK,99827,907-766-6313,Behavioral Health Facility,Yes,No,No,http://www.searhc.org
Title 5 (638),Tenakee Springs Village Clinic,General Delivery,Tenakee Springs,AK,99841,907-736-2347,Alaska Village Clinic,No,No,No,http://www.searhc.org
Title 5 (638),Thorne Bay Health Clinic,120 Freeman,Thorne Bay,AK,99919,907-828-8848,Alaska Village Clinic,No,Yes,No,http://www.searhc.org
Title 5 (638),Sitka  (SEARHC Mt. Edgecumbe Hospital),222 Tongass Drive,Sitka,AK,99835,907-966-2411,Hospital,No,No,Yes,http://www.searhc.org
Title 5 (638),Juneau  (SEARHC Ethel Lund Medical Center),1200 Salmon Creek Lane,Juneau,AK,99801,907-463-4040,Health Center,No,No,No,NULL
Title 5 (638),KIC Tribal Health Center (Ketchikan),"2960 Tongass Avenue, 3rd floor",Ketchikan,AK,99901,907-228-9200,Health Center,Yes,Yes,No,http://www.kictribe.org 
Title 5 (638),Front Street Clinic - Juneau,"222 Front Street, #202",Juneau,AK,99801,907-463-4201,Health Center,Yes,Yes,No,http://www.searhc.org
Title 5 (638),Yakutat Health Center,712 Ocean Cape Road,Yakutat,AK,99689,907-784-3275,Health Center,No,No,No,NULL
Title 5 (638),Angoon,725 Relay Road,Angoon,AK,99820,907-788-4600,Health Center,Yes,Yes,No,http://www.searhc.org/
Title 5 (638),SEARHC Haines Medical Center,131 First Avenue South,Haines,AK,99827,907-766-6300,Health Center,Yes,Yes,No,http://www.searhc.org
Title 5 (638),Hoonah  (Trudy Wolfe Health Center),568 Raven Drive,Hoonah,AK,99829,907-945-3235,Health Center,Yes,No,No,http://www.searhc.org
Title 5 (638),Hydaburg Health Clinic,8th Street Extension,Hydaburg,AK,99922,907-285-3462,Alaska Village Clinic,No,Yes,No,http://www.searhc.org
Title 5 (638),Kake Village Clinic,105 Totem Way,Kake,AK,99830,907-785-3333,Alaska Village Clinic,Yes,Yes,No,http://www.searhc.org
Title 5 (638),Klawock (Alicia Roberts Health Center),7300 Klawock-Hollis Highway,Klawock,AK,99925,907-755-4800,Health Center,Yes,Yes,No,NULL
Title 5 (638),"Klukwan Village Clinic, SEARHC",11 Chilkat Avenue,Klukwan,AK,99827,907-767-5699 ,Alaska Village Clinic,Yes,Yes,No,NULL
Title 5 (638),"Pelican Village Clinic, SEARHC",167 Salmon Way,Pelican,AK,99832,907-735-2250,Alaska Village Clinic,Yes,Yes,No,http://www.searhc.org
Title 5 (638),"Kasaan Village Clinic, SEARHC",1st and Jones,Kasaan,AK,99950,907-542-2222,Alaska Village Clinic,No,No,No,www.searhc.org
Title 5 (638),Raven's Way,1200 and 1204 Seward Avenue,Sitka,AK,99835,907-966-8714 or toll free 1-800-770-3063,Behavioral Health Facility,Yes,No,No,http://www.searhc.org/ravensway
Title 5 (638),Alatna Village Clinic,P.O. Box 70,Allakaket,AK,99720,907-968-2314,Alaska Village Clinic,No,No,No,http://www.tananachiefs.org/ 
Title 5 (638),Allakaket Counseling Center,P.O. Box 89,Allakaket,AK,99720,907-968-2210,Behavioral Health Facility,Yes,No,No,NULL
Title 5 (638),Chief Andrew Isaac Health Center,1408  19th Avenue,Fairbanks,AK,99701,907-451-6682 or toll free 800-478-6682,Health Center,No,No,Yes,http://www.tananachiefs.org
Title 5 (638),Yukon Flats Health Center,N/A,Yukon Flats,AK,N/A,907-662-2462,Health Center,Yes,No,No,http://www.catg.org
Title 1 (Tribal),Tanana Health Center,P.O. Box 77150,Tanana,AK,99777,907-366-7223,Health Center,No,No,No,NULL
Title 5 (638),Nulato Health Clinic,P.O. Box 10,Nulato,AK,99765,907-898-2209,Alaska Village Clinic,No,No,No,http://www.tananachiefs.org
Title 5 (638),Allakaket Village Clinic,P.O. Box 30,Allakaket,AK,99720,907-968-2248,Alaska Village Clinic,No,No,No,http://www.tananachiefs.org
NON-IHS,Anaktuvuk Pass Clinic (CHAP by NSB),N/A,Anaktuvuk Pass,AK,N/A,907-661-3914,Alaska Village Clinic,No,No,No,http://www.north-slope.org
Title 5 (638),Arctic Villiage Clinic,100 Main Street,Arctic Village,AK,99722,907-587-5229,Alaska Village Clinic,No,No,No,http://www.catg.org
Title 5 (638),Beaver Village Clinic,24030 Main Street,Beaver,AK,99724,907-628-6228,Alaska Village Clinic,No,No,No,http://www.catg.org
Title 5 (638),Chalkyitsik Village Clinic,P.O. Box 57,Chalkyitsik,AK,99788,907-848-8215,Alaska Village Clinic,No,No,No,http://www.tananachiefs.org
Title 5 (638),Circle Village Clinic,P.O. Box 109,Circle,AK,99733,907-773-7425,Alaska Village Clinic,No,No,No,http://www.catg.org
Title 5 (638),Eagle Village Clinic,P.O. Box 134,Eagle,AK,99738,907-547-2243,Alaska Village Clinic,No,No,No,NULL
Title 5 (638),Galena  (Edgar Nollner Health Center),P.O. Box 77,Galena,AK,99741,907-656-1366,Alaska Village Clinic,No,No,No,http://www.tananachiefs.org
Title 5 (638),Hughes Village Clinic,P.O. Box 49,Hughes,AK,99745,907-889-2211,Alaska Village Clinic,No,No,No,http://www.tananachiefs.org
Title 5 (638),Huslia Village Clinic,P.O. Box 90,Huslia,AK,99746,907-829-2204 ,Alaska Village Clinic,No,No,No,http://www.tananachiefs.org
Title 5 (638),Kaltag Village Clinic,P.O. Box 148,Kaltag,AK,99748,907-534-2209,Alaska Village Clinic,No,No,No,NULL
Title 5 (638),Koyukuk Village Clinic,P.O. Box 30,Koyukuk,AK,99754,907-927-2221,Alaska Village Clinic,No,No,No,http://www.tananachiefs.org
Title 5 (638),Manley Hot Springs Village Clinic,P.O. Box 83,Manley Hot Springs,AK,99756,907-672-3333,Alaska Village Clinic,No,No,No,http://www.tananachiefs.org
Title 5 (638),Minto Village Clinic,N/A,Minto,AK,N/A,907-798-7412,Alaska Village Clinic,No,No,No,NULL
Title 5 (638),Nenana  (Mary C. Dementieff Health Clinic),P.O. Box 160,Nenana,AK,99760,907-832-5247,Alaska Village Clinic,No,No,No,http://www.tananachiefs.org
Title 5 (638),Ruby Health Clinic,General Delivery,Ruby,AK,99768,907-468-4433,Alaska Village Clinic,No,No,No,http://www.tananachiefs.org 
Title 5 (638),Stevens Village Clinic,N/A,Stevens Village,AK,N/A,907-478-7215,Alaska Village Clinic,No,No,No,http://www.tananachiefs.org
Title 5 (638),Venetie  (Myra Roberts Clinic),101 Main Street,Venetie,AK,99781,907-849-8712,Alaska Village Clinic,No,No,No,http://www.catg.org
Title 5 (638),Healy Lake Village Clinic,P.O. Box 246,Healy,AK,99743,907-876-5018,Alaska Village Clinic,No,No,No,http://www.tananachiefs.org
Title 5 (638),Evansville Village Clinic,P.O. Box 26107,Evansville,AK,99726,907-692-5035,Alaska Village Clinic,Yes,No,No,http://www.tananachiefs.org
Title 5 (638),Birch Creek Village Clinic,P.O. Box KBC,Birch Creek,AK,99740,907-221-2537,Alaska Village Clinic,No,No,No,http://www.catg.org
Title 5 (638),Rampart Village Clinic,N/A,Rampart,AK,N/A,907-452-8251; toll free in AK 1-800-478-a6822,Alaska Village Clinic,No,No,No,http://tananachiefs.org
Title 5 (638),Dot Lake Village Clinic,P.O. Box 2267,Dot Lake,AK,99737,907-882-2737,Alaska Village Clinic,No,No,No,http://www.tananachiefs.org
Title 5 (638),Northway Village Clinic,P.O. Box 517,Northway,AK,99764,907-778-2283,Alaska Village Clinic,No,No,No,http://www.tananachiefs.org
Title 5 (638),Tanacross Village Clinic,N/A,Tanacross,AK,N/A,907-883-4131,Alaska Village Clinic,No,No,No,http://www.tananachiefs.org
Title 5 (638),Tetlin Village Clinic,N/A,Tetlin,AK,N/A,907-324-2151,Alaska Village Clinic,No,No,No,http://www.tananachiefs.org
Title 5 (638),Tok Community Clinic,"Tok Cutoff Road, milepost 124.2",Tok,AK,99780,907-883-5855,Alaska Village Clinic,No,No,No,http://www.tananachiefs.org
Title 5 (638),Metlakatla  (Annette Island SU Health Center),Brendible Street ,Metlakatla,AK,N/A,907-886-4741,Health Center,No,No,No,http://www.aisu.org 
Title 5 (638),Nome  (Norton Sound Regional Hospital),306 West 5th Avenue,Nome,AK,99762,907-443-3311,Hospital,Yes,Yes,Yes,http://www.nortonsoundhealth.org
Title 5 (638),Gambell (Bessie Kaningok Village Clinic),123 Maz Way,Gambell,AK,99742,907-985-5012,Alaska Village Clinic,No,No,No,http://www.nortonsoundhealth.org
Title 5 (638),Savoonga Village Clinic,P.O. Box 151,Savoonga,AK,99769,907-984-6513,Health Center,No,No,No,http://www.nortonsoundhealth.org
Title 5 (638),Unalakleet (Anikkan Inuit Iluaqutaat Sub-Regional Clinic),P.O. Box 189,Unalakleet,AK,99684,907-624-3535,Health Center,No,No,No,http://www.nortonsoundhealth.org/
Title 5 (638),Brevig Mission Village Clinic,P.O. Box 85058,Brevig Mission,AK,99785,907-642-4311,Health Center,No,No,No,http://nortonsoundhealth.org
Title 5 (638),Elim  (Yukuniaraq Yunqcarvik VIllage Clinic),P.O. Box 69,Elim,AK,99739,907-890-3311,Alaska Village Clinic,No,No,No,http:///www.nortonsoundhealth.org
Title 5 (638),Golovin  (Irene L. Aukongak Dagumaaq Health Clinic),P.O. Box 62039,Golovin,AK,99762,907-779-3311,Alaska Village Clinic,No,No,No,http://www.nortonsoundhealth.org
Title 5 (638),Koyuk  (Ruth Qumiiggan Henry Memorial Clinic),P.O. Box 70,Koyuk,AK,99753,907-963-3311,Alaska Village Clinic,No,No,No,http://www.nortonsoundhealth.org
Title 5 (638),Metlakatla  (Arnie Christiansen Crisis Intervention Center),MIlton Street,Metlakatla,AK,N/A,907-886-7491,Behavioral Health Facility,Yes,No,No,http://www.aisu.org
Title 5 (638),WINGS Safe House (Metlakatla),N/A,Metlakatla,AK,N/A,907-886-4555,Behavioral Health Facility,Yes,No,No,http://www.aisu.org
Title 5 (638),BBAHC Counseling Center,P.O. Box 130,Dillingham,AK,99576,907-842-5174,Behavioral Health Facility,Yes,No,No,http://www.bbahc.org
Title 5 (638),Dillingham  (Our House),P.O. Box 1517,Dillingham,AK,99576,907-842-4248,Behavioral Health Facility,Yes,No,No,http://www.bbahc.org
Title 5 (638),CATG Family Recovery Camp,P.O. Box 21,Fort Yukon,AK,99740,907-662-2526,Behavioral Health Facility,Yes,No,No,http://www.catg.org
Title 5 (638),Yukon Flats CARE Center (CATG),N/A,Fort Yukon,AK,N/A,N/A,Behavioral Health Facility,Yes,No,No,NULL
Title 5 (638),Galena Mental Health,N/A,Galena,AK,N/A,907-452-8251,Behavioral Health Facility,Yes,No,No,NULL
Title 5 (638),Minto Counseling Center,P.O. Box 77,Minto,AK,99758,907-798-7412,Behavioral Health Facility,No,No,No,http:///www.tananachiefs.org
Title 5 (638),Tanana Chiefs Conf. Paul Williams House,1340  23rd Avenue,Fairbanks,AK,99701,907-451-7962,Behavioral Health Facility,Yes,No,No,http://www.tananachiefs.org
Title 5 (638),Family Crisis Center,N/A,Kotzebue,AK,N/A,907-442-3724,Behavioral Health Facility,Yes,No,No,http://www.maniilaq.org
Title 5 (638),Kotzebue  (Putyuk Childrens' Home),N/A,Kotzebue,AK,N/A,907-442-3855,Behavioral Health Facility,Yes,No,No,http://maniilaq.org
Title 5 (638),Bautista House Adult Rehab,381 - 4th Avenue,Bethel,AK,99559,907-543-2242,Behavioral Health Facility,Yes,No,No,http://www.ykhc.org 
Title 5 (638),"Integrated Outpatient Program, Bethel (HRSA CMH Center)",N/A,Bethel,AK,N/A,907-543-6100,Behavioral Health Facility,Yes,No,No,http://www.ykhc.org
Title 5 (638),Morgan Transitional Living,829 Chief Eddie Hoffman Highway,Bethel,AK,99559,907-543-6000,Behavioral Health Facility,No,No,No,http://www.ykhc.org
Title 5 (638),Hooper Bay Mental Health Clinic,N/A,Hooper Bay,AK,99604,907-758-3500,Behavioral Health Facility,Yes,No,No,http://www.ykhc.org
Title 5 (638),Toksook Bay Mental Health Clinic,P.O. Box 37028,Toksook Bay,AK,99637,907-427-3537,Behavioral Health Facility,Yes,No,No,http://www.ykhc.org
Title 1 (Tribal),Fred Leroy Health and Wellness Center,2602 J Street,Omaha,NE,68107,402-734-5275,Health Center,No,No,No,NULL
Title 5 (638),Agua Caliente Outreach Office,901 E Tahquitz Way ,Palm Springs,CA,92262,(760) 323-9496,Health Station,No,No,No,http://www.rsbcihi.org 
IHS,Allen Health Station,100 West Main St,Allen,SD,57714,N/A,Health Station,No,No,No,NULL
Title 5 (638),Anza Indian Health / Outreach Office,"39100 Contreras Road, Suite C",Anza,CA,92539,(951) 763-4835,Health Station,No,No,No,http://www.rsbcihi.org 
Urban,Bakersfield American Indian Health Project,1617 30th St,Bakersfield,CA,93301, 661-327-4030 ,Health Station,No,No,No,http://www.uaii.org/bakersfield.htm
IHS,Lower Brule Health Center,601 Gall St,Lower Brule,SD,57548,605-473-5544,Health Center,No,No,Yes,http://www.ihs.gov/aberdeen/index.cfm?module=ab_ao_hf_lbsu
IHS,Mandaree Health Station,305 Main Street,Mandaree,ND,58757,701-627-4701,Health Station,No,No,No,NULL
Title 1 (Tribal),Mariposa Indian Health Center,5192 Hospital Road ,Mariposa,CA,95338, 209-742-6144 ,Health Center,No,Yes,No,http://www.macthealthboard.com/
Title 1 (Tribal),Mathiesen Memorial Health Clinic,18144 Seco St,Jamestown,CA,95327,209-984-4820,Health Center,No,No,No,http://mathiesenclinic.com/
IHS,McLaughlin Health Center,701 East Sixth St,McLaughlin,SD,57642,605-823-4458,Health Center,No,No,Yes,http://www.ihs.gov/Aberdeen/index.cfm?module=ab_ao_hf_srsu
Title 1 (Tribal),Meskwaki Health Center,307 Meskwaki Rd,Tama,IA,52339,641-484-4094,Health Center,No,No,No,NULL
Title 1 (Tribal),Elbowoods Memorial Health Center,1 Minne-Tohe Drive,Newtown,ND,58763,701-627-4701,Health Center,No,No,No,http://www.ihs.gov/aberdeen/index.cfm?module=ab_ao_hf_fbsu
Title 1 (Tribal),Modoc Indian Health Project DBA Strong Family Health Center,1203 Oak Street ,Alturas ,CA,96101, 530-233-4591 ,Behavioral Health Facility,Yes,No,No,NULL
Urban,"Native American Health Center, San Francisco",160 Capp St ,San Francisco,CA,94110,415.621.8051,Health Center,Yes,Yes,No,http://nativehealth.org/
Title 1 (Tribal),Native Women's Health Care,"640 Slormann St, Suite 400",Rapid City,SD,57702,6305-342-7460,Health Station,No,No,No,NULL
Title 1 (Tribal),North Fork Indian Health Center,"32938 Road 222, Suite 2",North Fork ,CA,93643,559-877-4676 ,Health Center,No,No,No,http://cvih.org/home.html
Title 5 (638),Northern Valley Indian Health - Chico,845 W East Ave,Chico,CA,95926,530-896-9400 ,Health Center,No,Yes,No,http://nvih.org/
Title 5 (638),Northern Valley Indian Health - Willows,207 N Butte Street ,Willows ,CA,95988,530-934-4641 ,Health Center,Yes,Yes,No,http://nvih.org/
IHS,Northern Navajo Medical Center,Hwy 491 North,Shiprock,NM,87420,505-368-3600,Hospital,No,Yes,Yes,http://www.ihs.gov/Navajo/index.cfm?module=nao_hcc_shiprock
Title 1 (Tribal),Sonoma County Indian Health,144 Stony Point Road ,Santa Rosa,CA,95401,707-521-4545 ,Health Center,Yes,Yes,Yes,http://www.scihp.org
Title 1 (Tribal),Sonora Indian Health Center,"13975 Mono Way, Suite G",Sonora,CA,95370,209-533-9600 ,Health Center,No,Yes,No,http://www.macthealthboard.com
Title 1 (Tribal),"Southern Indian Health Council, Inc",4058 Willows Road,Alpine,CA,91901,619-445-1188 ,Health Center,No,No,Yes,http://www.sihc.org
Title 1 (Tribal),Sycuan Medical Dental Center,5442 Sycuan Road,El Cajon,CA,92019,619-445-0707 ,Health Center,No,Yes,No,http://www.sycuantribe.com/html/medical-dental.html
Title 1 (Tribal),Tuolumne Me-Wuk Health and Wellness Center,"19969 Greenly Rd, Suite B",Sonora,CA,95370,209-532-0028,Health Center,No,Yes,No,http://www.tmwihc.org/ 
Title 1 (Tribal),Tuolumne Me-Wuk Indian Health Center,18880 Cherry Valley Road ,Tuolumne,CA,95379,209-928-5400,Health Center,No,No,No,http://www.tmwihc.org 
Title 1 (Tribal),Toiyabe Indian Health Project -Bishop Clinic,52 Tu Su Lane,Bishop,CA,93514,760-873-8461 ,Health Center,No,No,Yes,http://toiyabe.us
Title 1 (Tribal),Trenton Community Clinic,Highway 1804 West,Trenton,ND,58853,701-774-0461,Health Center,No,No,Yes,NULL
IHS,Twin Buttes Health Station,N/A,Twin Buttes,ND,58623,701-627-4701,Health Station,No,No,No,NULL
Urban,"United American Indian Involvement, Inc - Los Angeles","1125 W 6th Street, Suite 103",Los Angeles,CA,90017,213-202-3970 ,Health Center,No,Yes,No,http://www.uaii.org/index.html
Title 1 (Tribal),UIHS-Potawot Health Village,1600 Weeot Way,Arcata ,CA,95521,707-825-5000,Health Center,No,Yes,Yes,http://www.uihs.org/
IHS,Wagner Health Center,"111 Washington Street, NW",Wagner,SD,57380,605-384-3621,Health Center,No,No,Yes,http://www.ihs.gov/Aberdeen/index.cfm?module=ab_ao_hf_yanksu
IHS,Wanblee Health Center,100 Clinic Road,Wanblee,SD,57577,605-642-6155,Health Center,No,No,No,http://www.ihs.gov/aberdeen/index.cfm?module=ab_ao_hf_prsu
Title 1 (Tribal),Weitchpec Indian Health Station,"Weitchpec Route, Libby Nix Community Center ",Hoopa,CA,95546,(707) 445-2360,Health Station,No,No,No,http://www.uihs.org/
IHS,White Shield Health Station,2 Central Main Street B,White Shield,ND,58775,701-627-4701,Health Station,No,No,No,NULL
IHS,Winnebago Hospital,US Highway 77-75,Winnebago,NE,68071,402-878-2231,Hospital,No,No,No,http://www.ihs.gov/aberdeen/winnebago/
Title 5 (638),Northern Valley Indian Health - Woodland,175 West Court Street,Woodland,CA,95695,530-661-4400,Health Center,No,Yes,No,http://www.chapa-de.org 
Title 5 (638),Yreka - Karuk Tribal Health Clinic,1519 S Oregon St,Yreka,CA,96097,530-842-9200 ,Health Center,No,Yes,No,http://karuk.us/health/
Title 1 (Tribal),Yuba City Indian Health Station,1231 Plumas Street,Yuba City,CA,95991,530-751-8454 ,Health Center,Yes,No,No,http://www.frth.org 
NON-IHS,El Rio Yaqui CHS,839 W Congress St,Tucson,AZ,85745,N/A,NULL,No,No,No,NULL
IHS,San Xavier Dental Clinic,7900 S. J. Stock Road,Tucson,AZ,85743,520-295-2575,Dental Clinic,No,Yes,No,no 
IHS,Sells Dental Clinic,Highway 86 and Topawa Road,Sells,AZ,85634,520-383-7341,Dental Clinic,No,Yes,No,NULL
IHS,Sells Hospital,Hwy 86 & Topawa Rd,Sells,AZ,85634,520-383-7200,Hospital,No,No,Yes,http://www.ihs.gov/Tucson/index.cfm?module=dsp_tuc_facs
Title 1 (Tribal),Jena Band,1018 Chata Yakni,Trout,LA,71371,318-992-2727,Health Location,Yes,No,No,NULL
Title 5 (638),Chitimacha Health Clinic,3231 Chitimacha Trail,Charenton,LA,70523,337-923-9955,Health Center,Yes,Yes,Yes,NULL
Title 5 (638),Bogue Chitto Health Station,124 Big Creek Circle,Philadelphia,MS,39350,601-656-5442,Health Station,No,Yes,No,http://www.choctaw.org/
Title 5 (638),Tucker Day School and Health Center,127 Tucker Facility Road,Philadelphia,MS,39350,601-656-5407,School Health Center,No,No,No,NULL
Title 5 (638),Conehatta Health Station,376 Campus Road,Conehatta,MS,39057,601-775-3446,Health Station,No,Yes,No,NULL
Title 5 (638),Bogue Homa Health Station,109 McFarlane Road,Heidelberg,MS,39439,601-425-1991,Health Station,No,No,No,http://www.choctaw.org
Title 5 (638),Cherokee Health & Medical Division,43 John Crow Hill,Cherokee,NC,28719,828-497-9163,Other,Yes,Yes,No,NULL
IHS,Unity Healing Center,448 Sequoyah Trail Dr,Cherokee,NC,28719,828-497-3958,Psychiatric Inpatient,Yes,No,No,http://www.ihs.gov/Nashville/index.cfm?module=dsp_nsh_unity
Title 5 (638),CIHA Diabetes Clinic,806 Acquoni Rd,Cherokee,NC,28719,828-497-9163,Other,No,Yes,No,NULL
Title 5 (638),CIHA Hospital,1 Hospital Road,Cherokee,NC,28719,828-497-9163,Hospital,Yes,Yes,No,NULL
Title 5 (638),Tsali Care Nursing Home,1 Hospital Road,Cherokee,NC,28719,828-497-9163,Other,No,No,No,NULL
Title 1 (Tribal),Coushatta Health Station,2003 CC Bel Road,Elton,LA,70532,337-584-1439,Health Station,Yes,Yes,Yes,NULL
Title 1 (Tribal),Alabama-Coushatta Health Center,129 Daycare Road,Livingston,TX,77351,936-563-2058,Health Center,No,Yes,Yes,http://www.alabama-coushatta.com/
IHS,Catawba Health Service,2893 Sturgis Rd,Rock Hill,SC,29730,803-366-9090,Health Center,Yes,Yes,Yes,http://www.ihs.gov/Nashville/index.cfm?module=dsp_nsh_catawba
Title 1 (Tribal),Cattaraugus I.R. Health Center ,36 Thomas Indian School Drive,Irving,NY,14081,716-532-5582,Health Center,Yes,Yes,No,NULL
Title 1 (Tribal),Lionel John/Allegany I.R. Health Center,987 R.C. Hoag Drive,Salamanca,NY,14779,716-945-5894,Health Center,Yes,Yes,No,NULL
Title 1 (Tribal),Mashantucket Pequot Health Center ,75 Norwich-Westerly Road,Ledyard,CT,6339,860-312-8029,Health Center,Yes,No,No,NULL
Title 1 (Tribal),Narragansett Health Center,4533 S County Trail,Charlestown,RI,2813,401-364-1268,Health Center,Yes,No,No,NULL
Title 1 (Tribal),Hand-in-Hand Child Care Center,4477 South County Trail,Charlestown,RI,2813,401-364-1268,Health Location,No,No,No,NULL
IHS,Manlius CHS Program,122 E Seneca St,Manlius,NY,13104,315-682-3167,Health Location,No,No,No,NULL
Title 1 (Tribal),Oneida Nation Family Services,55 Territory Rd,Oneida,NY,13421,315-829-8712,Behavioral Health Facility,Yes,No,No,NULL
Title 1 (Tribal),Oneida Indian Nation Health Services,2 Territory Rd,Oneida,NY,13421,315-829-8700,Health Center,Yes,Yes,No,NULL
IHS,Micmac Health Services,8 Northern Road,Presque Isle,ME,4769,207-764-6968,Health Center,Yes,Yes,No,http://www.ihs.gov/Nashville/index.cfm?module=dsp_nsh_micmac
Title 1 (Tribal),Indian Township (Peter Dana Point) Health Center,401 Peter Dana Point Road,Princeton,ME,N/A,207-796-2321,Health Center,Yes,Yes,Yes,NULL
Title 1 (Tribal),Houlton Health Center,3 Clover Circle,Houlton,ME,4730,207-532-2240,Health Center,Yes,No,No,NULL
Title 1 (Tribal),Pleasant Point Health Center,11 Back Road ,Perry ,ME,4667,207-853-0644,Health Center,Yes,Yes,No,NULL
Title 5 (638),Big Cypress Health Center,30581 Buffalo Jim Loop Rd,Clewiston,FL,33440,863-983-5151,Health Center,No,Yes,No,NULL
Title 5 (638),Immokalee Health Center,1120 S First Street,Immokalee,FL,34142,239-867-3400,Health Center,No,Yes,No,NULL
Title 1 (Tribal),Miccosukee Health Station,US 41 - Mile Marker 70,Miami,FL,33144,305-223-8380,Health Center,Yes,Yes,Yes,NULL
Title 5 (638),Hollywood Health Center,3006 Josie Billie Ave,Hollywood,FL,33024,954-962-2009,Health Center,Yes,Yes,Yes,NULL
IHS,Canoncito Health Center,Interstate 40 @ Exit 131,Canoncito,NM,87026,505-908-2307,Health Center,No,Yes,No,NULL
Title 5 (638),SIPI,9169 Coors Blvd NW,Albuquerque,NM,87193,800-586-7474,Other,No,No,No,NULL
Title 1 (Tribal),Colusa Indian Health Clinic,3710 Hwy 45,Colusa,CA,95932, 530-458-5501 ,Health Center,No,Yes,Yes,http://www.colusa-nsn.gov/Health-Clinic/Health-Clinic.html
Title 5 (638),Confederated Umatilla Tribes Yellowhawk Clinic,73265 Confederated Way,Pendleton,OR,97801,(541) 278-7500,Health Center,Yes,Yes,No,NULL
Title 5 (638),CTCLUSI Health Center,1245 Fulton Ave,Coos Bay,OR,97420,(541) 888-7515,Dental Clinic,No,Yes,No,NULL
Title 1 (Tribal),Coquille Community Health Center,600 Miluk Dr,Coos Bay,OR,97420,(541) 888-9494,Health Station,No,No,No,NULL
Title 1 (Tribal),Cow Creek Health & Wellness Center,"2371 NE Stephens, Suite #200",Roseburg,OR,97470,(541) 672-8533,Health Center,No,No,No,NULL
Title 1 (Tribal),Sauk-Suiattle Tribal Health Clinic,5318 Chief Brown Lane,Darrington,WA,98241,(360) 436-2210,Health Station,No,No,No,NULL
Title 5 (638),Shoalwater Bay Tribal Clinic,2373 Tokeland Rd,Tokeland,WA,98590,(360) 267-0119,Health Center,Yes,Yes,No,NULL
Title 1 (Tribal),Stilaguamish Health Center,3439 Stoluckguamish Lane,Arlington,WA,98923,N/A,Health Center,No,No,No,NULL
Title 5 (638),Swinomish Tribal Health Center,17400 Reservation Rd,La Conner,WA,98257,(360) 466-3167,Health Center,Yes,Yes,Yes,NULL
Title 1 (Tribal),Tolt Community Clinic - Snoqualmie,8130 Railroad Ave Suite 103,Snoqualmie,WA,98065,(425) 333-5426,Health Center,No,No,No,NULL
Title 1 (Tribal),Upper Skagit Tribal Clinic,2284 Community Plaza Way,Sedro Wolley,WA,98284,(360) 854-7070,Health Station,No,No,No,NULL
IHS,Bullhead Health Station,102 Tasunka Street,Bullhead,SD,57621,701-854-3831,Health Station,No,No,No,NULL
IHS,Cannon Ball Health Station,N/A,Cannon Ball,ND,58528,701-854-3831,Health Station,No,No,No,NULL
IHS,Cherry Creek Health Station,N/A,Cherry Creek,SD,57622,N/A,Health Station,No,No,No,NULL
Title 1 (Tribal),Flandreau Santee Sioux Tribal Health Center,701 West Broad Ave,Flandreau,SD,57028,605-997-3891,Health Center,No,No,No,NULL
Title 1 (Tribal),Santee Sioux Health Center,110 South Visiting Eagle Street,Niobrara,NE,68760,N/A,Health Center,No,No,No,NULL
IHS,Swiftbird (La Plante) Health Station,N/A,Swiftbird,SD,57637,N/A,Health Station,No,No,No,NULL
IHS,Whitehorse Health Station,317 Main,Eagle Butte,SD,57661,605-964-8917,Health Station,No,No,No,NULL
Title 5 (638),Santa Ysabel Community Health Center,110-1/2 School House Canyon Road ,Santa Ysabel,CA,92070, 760-789-9060 ,Health Center,No,Yes,No,http://www.indianhealth.com 
Title 5 (638),Skokomish Tribe,80 North Tribal Center Rd,Skokomish,WA,98584,(360) 426-5755,Health Station,Yes,Yes,No,NULL
Title 1 (Tribal),Anava Tribal Health Clinic,9024 Sniktaw Lane ,Fort Jones,CA,96032,530-468-4470,Health Center,Yes,Yes,No,http://www.qvir.com/health-clinic.html
IHS,Clarence Wesley Health Center,101 Medical Dr,Bylas,AZ,85530,928-475-2371,Health Center,No,No,No,NULL
Title 1 (Tribal),Campo Medical / Dental Clinic,36350 Church Road,Campo,CA,91906,619-478-2225 ,Health Center,No,Yes,No,http://www.sihc.org 
Title 1 (Tribal),Chehalis Community Clinic,21 Neiderman Rd,Oakville,WA,98568,(360) 273-5504,Health Center,No,Yes,No,NULL
Title 1 (Tribal),Chief Klai Health & Wellness - Hoh,2269 Lower Hoh Road ,Forks,WA,98331,(360) 374-6582,Health Center,No,No,No,NULL
IHS,Cibecue Health Center,2 W 3rd St,Cibecue,AZ,85911,(928) 338-3555,Health Center,No,No,No,NULL
IHS,Colville Indian Health Center Nespelem,19 Lakes St,Nespelem,WA,99155,(509) 634-2900,Health Center,No,Yes,Yes,NULL
Title 1 (Tribal),Cowlitz Tribal Health Clinic,1055 9th Ave Suite A,Longview,WA,98632,(360) 575-8275,Health Center,No,No,No,NULL
Title 1 (Tribal),Elk Valley Health Station,2298 Norris Avenue,Crescent City,CA,95531,707-464-2919 ,Health Station,No,No,No,http://www.uihs.org 
Title 1 (Tribal),Greenville Rancheria Indian Health,410 Main Street ,Greenville,CA,95947, 530-284-7990 ,Health Center,Yes,Yes,No,http://www.greenvillerancheria.com/
IHS,Healing Lodge of the Seven Nations,5600 East 8th Ave,Spokane,WA,99212,(509) 533-6910,Alcohol Substance Abuse Treatment Facility,Yes,No,No,NULL
Title 5 (638),K'ima:w Medical Center,1200 Airport Road,Hoopa,CA,95546,(530) 625-4261,Health Center,No,Yes,No,http://www.hoopa-nsn.gov/departments/kimaw/kimaw.htm
Title 5 (638),"Indian Health Council, Inc.- Valley Center",50100 Golsh Road,Valley Center,CA,92082,(760) 749-1410,Health Center,No,Yes,No,http://www.indianhealth.com 
Title 1 (Tribal),Klamath Tribal Health Clinic,3949 S 6th Street,Klamath Falls,OR,97603,N/A,Health Station,Yes,No,Yes,NULL
Title 1 (Tribal),Lake County Tribal Health Consortium,925 Bevins Court,Lakeport,CA,95453, 707-263-8382 ,Health Center,No,Yes,No,http://www.lcthc.com/
Title 1 (Tribal),Lone Pine Indian Health Clinic,1150 South Goodwin Lane,Lone Pine,CA,93454,(760) 876-4795,Health Center,No,No,No,http://www.toiyabe.us 
Title 5 (638),Morongo Clinic,11555-1/2 Portrero Road,Banning,CA,92220,951-849-4761 ,Health Center,Yes,Yes,No,http://www.rsbcihi.org
Title 5 (638),Nisqually Health Clinic,4816-B She-Nah-Num Drive SE,Olympia,WA,98513,(360) 459-5312,Health Center,No,No,No,NULL
Title 5 (638),Karuk Tribe of California Clinic - Orleans,39051 Highway 96,Orleans,CA,95556, 530-627-3452,Health Center,No,No,No,http://www.karuk.us/health/
IHS,Phoenix Indian Medical Center,4212 N 16th Street,Phoenix,AZ,85016,602-263-1568,Hospital,No,No,Yes,http://www.ihs.gov/Phoenix/index.cfm?module=dsp_phx_hf_phx
Title 1 (Tribal),Pyramid Lake Tribal Health Center,705 Hwy 446,Nixon,NV,89424,775-574-1018,Health Center,No,No,No,NULL
Title 5 (638),Quinault Nation Tribal Health Facility,173 Queets Ave,Queets,WA,98331,(360) 962-2245,Health Center,No,Yes,No,NULL
Title 1 (Tribal),Reno Sparks Shoshone Paiute Health Center,1715 Kuenzli St,Reno,NV,89502,"(775) 329-5162, ext. 1996",Health Center,No,No,Yes,NULL
Title 1 (Tribal),Samish Indian Health Center,2918 Commerical Ave,Anacortes,WA,98221,(360) 293-6404,Administration,No,No,No,NULL
Title 1 (Tribal),Shingle Springs Tribal Health Program,5168 Honpie Rd,Placerville,CA,95667,530-672-8059 ,Health Center,Yes,Yes,No,http://www.shinglespringsrancheria.com 
Title 1 (Tribal),Shoshone-Bannock Tribal Health Department,"Route #6, Mission Road",Fort Hall,ID,83203,(208) 238-5435,Administration,No,No,No,NULL
Title 5 (638),Squaxin Island Health Clinic,90 SE Klah-Ce-Min Dr,Shelton,WA,98584,(360) 427-9006,Health Station,No,No,No,NULL
Title 5 (638),Suquamish Tribe CHS Administration,15838 Sandy Hook Road NE,Suquamish,WA,98392,(360) 394-8468,Administration,No,No,No,NULL
Title 1 (Tribal),Table Mountain Rancheria Medical Center,23638 Sky Harbour Dr. ,Friant,CA,93626,559-822-3785 ,Health Center,Yes,Yes,No,NULL
Title 1 (Tribal),Tachi Medical Center,"16835 Alkali Drive, Suite M ",Lemoor,CA,93245, 559-924-1541 ,Health Center,No,Yes,No,http://cvih.org/home.html
Title 1 (Tribal),"Tule River Indian Health Center, Inc",380 N Reservation Rd,Porterville,CA,93257,559-784-2316,Health Center,Yes,Yes,No,http://www.trihci.org/
Title 1 (Tribal),Wapato Health Station,N/A,Wapato,WA,N/A,N/A,Health Station,No,No,No,NULL
Title 1 (Tribal),Warner Mountain Indian Health Clinic,132 Mee Thee-Uh Road,Fort Bidwell,CA,96112,530-279-6194 ,Health Center,No,No,No,http://www.ihs.gov/California/Universal/PageMain.cfm?p=231&ProgramNbr=17
Title 1 (Tribal),X-L Ranch Reservation Clinic,1034 Lakeview Highway,Alturas,CA,96101,530-223-3223,Health Center,No,Yes,No,http://www.pitriverhealthservice.org/
IHS,Yakama Indian Health Clinic,401 Buster Road,Toppenish,WA,98948,(509) 865-2102,Health Center,No,Yes,Yes,NULL
NON-IHS,Center for American Indian Resources,211 W 4th Street,Duluth,MN,55806,218-879-1227,Health Center,No,No,No,NULL
NON-IHS,East Lake Health Station,36666 Hwy 65,McGregor,MN,55760,320-532-4163 x7575,Health Station,No,No,No,NULL
NON-IHS,Escanaba Tribal Health ,524 Ludington St,Escanaba,MI,49829,906-632-5257,Health Station,No,No,No,NULL
NON-IHS,Grand Portage Health Center,62 Upper Rd,Grand Portage,MN,55605,218-475-2235,Health Center,No,No,No,NULL
NON-IHS,Grand Traverse Band Family Health Clinic,"2300 N Stallman Rd, Suite A",Suttons Bay,MI,49682,231-534-7477,Health Center,No,No,No,NULL
NON-IHS,Granite Falls Location,5744 Highway 67,Granite Falls,MN,56241,320-564-6321,Health Location,No,No,No,NULL
NON-IHS,Ho-Chunk Chemical Dependency Outpatient Program,N6520 Guy Rd,Black River Falls,WI,54615,715-84-9851,Alcohol Substance Abuse Treatment Facility,No,No,No,NULL
NON-IHS,Ho-Chunk House of Wellness Health Center,S2845 White Eagle Road,Baraboo,WI,53913,608-335-1240 x5579,Health Center,No,No,Yes,NULL
NON-IHS,Inger Tribal Health Station,Highway 46 ,Inger,MN,56636,218-335-4500,Health Station,No,No,No,NULL
NON-IHS,Keweenaw Bay Health Center,102 Superior Ave,Baraga,MI,49908,906-353-8666,Health Center,No,No,No,NULL
NON-IHS,Kinross Community Clinic,302 Watertower Dr,Kincheloe,MI,49788,906-632-5257,Health Center,No,No,No,NULL
NON-IHS,Lac Courte Oreilles Health Center,13380 W Trepania Rd,Hayward,WI,54843,715-638-5135,Health Center,No,No,Yes,NULL
NON-IHS,LaCrosse Field Health Location,724 Main Street,La Crosse,WI,54601,715-84-9851,Health Location,No,No,No,NULL
NON-IHS,LaCrosse Field Health Office,724 Main Street,La Crosse,WI,54601,715-84-9851,Health Location,No,No,No,NULL
NON-IHS,Lake Lena Health Station,45741 Grace Lake Rd,Sandstone,MN,55072,320-532-4163 x7575,Health Station,No,No,No,NULL
NON-IHS,Little River Band of Ottawa Indians Tribal Health Services,310 9th St,Manistee,MI,49660,231-723-8299,Health Center,No,No,No,NULL
NON-IHS,Little Rock Health Station,N/A,Little Rock,MN,56671,218-679-3316,Health Station,No,No,No,NULL
NON-IHS,Little Traverse Bay of Odawa Indians Outpatient Program,1080 Hager Drive,Petoskey,MI,49770,231-242-1700,Health Center,No,No,No,NULL
NON-IHS,Lower Sioux Health Location,39458 Reservation Hwy 1,Morton,MN,56270,507-697-6185,Health Location,No,No,No,NULL
NON-IHS,Maehnowesekiyah Co. Rd. G (Inpatient Chemical Dependency),N2150 Kesaehkahtek,Gresham,WI,54128,715-799-3361 or 715-799-5789,Alcohol Substance Abuse Treatment Facility,No,No,No,NULL
NON-IHS,Maehnowesekiyah Highway 6 (Inpatient Chemical Dependency),N2150 Kesaehkahtek,Gresham,WI,54128,715-799-3361 or 715-799-5789,Alcohol Substance Abuse Treatment Facility,No,No,No,NULL
NON-IHS,MBPI Health and Human Services,"1734 142nd Ave, Suite 8",Dorr,MI,49323,616-681-0360,Health Center,No,No,No,NULL
NON-IHS,Menominee Health Center,W 3275 Wolf River Drive,Keshena,WI,54135,715-799-3361 or 715-799-5789,Health Center,No,No,No,NULL
NON-IHS,Munising Health Station,622 W Superior St,Munising,MI,49862,906-632-5257,Health Station,No,No,No,NULL
IHS,Oglala Native Healing,3200 Canyon Lake Drive,Rapid City,SD,57752,605-342-8925,Alcohol Substance Abuse Treatment Facility,No,No,No,NULL
Urban,American Indian Health & Services Corporation,4141 State Steet Suite B-11 ,Santa Barbara,CA,93110,805-681-7356,Health Center,Yes,Yes,No,http://www.aihscorp.org/
NON-IHS,Naytahwaush Health Station,40520 County Hwy 34,Ogema,MN,56569,218-983-4300,Health Station,No,No,No,NULL
NON-IHS,Ne-ia-shing Health Center,43500 Migizi Drive,Onamia,MN,56359,320-532-4163 x7575,Health Center,No,No,Yes,NULL
NON-IHS,Nett Lake Health Center,5219 St. John Drive,Nett Lake,MN,55771,218-757-3295,Health Center,No,No,No,NULL
NON-IHS,St Ignace Tribal Health Center,1140 N State St,St. Ignace,MI,49781,906-632-5257,Health Center,No,No,No,NULL
IHS,Arapahoe Health Center,14 Great Plains Road,Arapahoe,WY,82510,307-856-9281,Health Center,Yes,Yes,No,http://www.ihs.gov/billings/index.cfm?module=bao_su_windriver
IHS,Blackfeet Community Hospital,760 Hospital Circle,Browning,MT,59417,406-338-6230,Hospital,Yes,Yes,Yes,http://www.ihs.gov/billings/index.cfm?module=bao_su_blackfeet
IHS,Crow Hospital,10110 South 7650 East,Crow Agency,MT,59022,406-638-2626,Hospital,No,No,No,http://www.ihs.gov/billings/index.cfm?module=bao_su_crow
IHS,Fort Washakie Health Center,29 Black Coal Drive,Fort Washakie,WY,82514,307-332-9416,Health Center,Yes,Yes,No,http://www.ihs.gov/billings/index.cfm?module=bao_su_windriver
IHS,Eagle Child Health Station,123 Whitecow Canyon Road,Hays,MT,59527,406-353-3195,Health Station,No,No,No,http://www.ihs.gov/billings/index.cfm?module=bao_su_ftbelknap
IHS,Heart Butte Health Station,81 Disney,Heart Butte,MT,59448,406-338-2151,Health Station,Yes,Yes,No,http://www.ihs.gov/billings/index.cfm?module=bao_su_blackfeet
IHS,Lame Deer Health Center,100 Cheyenne Avenue,Lame Deer,MT,59043,406-477-4454,Health Center,No,No,No,http://www.ihs.gov/billings/index.cfm?module=bao_su_windriver
IHS,Lodge Grass Health Center,Harding Avenue,Lodge Grass,MT,59050,406-638-3461,Health Center,No,No,No,http://www.ihs.gov/billings/index.cfm?module=bao_su_crow
IHS,Poplar Health Center,107 H Street E,Poplar,MT,59255,406-768-3491,Health Center,No,No,No,NULL
IHS,Pryor Health Station,Pryor Gap Road,Pryor,MT,59066,406-638-3461,Health Station,No,No,No,http://www.ihs.gov/billings/index.cfm?module=bao_su_crow
Title 1 (Tribal),Red Bluff Dental Clinic,343 Oak Street,Red Bluff,CA,96080,530-529-2567 ,Dental Clinic,No,Yes,No,http://nvih.org/
IHS,Wolf Point Health Center,550 6th Ave North,Wolf Point,MT,59201,406-653-1641,Health Center,No,No,No,NULL
Title 1 (Tribal),Cabazon Band of Mission Indians Clinic,84-245 Indio Springs Drive,Indio,CA,92203,760-342-2593,Health Center,No,No,No,http://www.ihs.gov/California/Universal/PageMain.cfm?p=231&ProgramNbr=39
Urban,Friendship House Association of American Indians (San Francisco),56 Julian Ave,San Francisco,CA,94103,415-865-0964,Behavioral Health Facility,Yes,No,No,http://www.ihs.gov/California/Universal/PageMain.cfm?p=231&ProgramNbr=46
Urban,"Native Directions, Inc. (Manteca)",13505 North Union Road,Manteca,CA,95336,209-858-2421,Behavioral Health Facility,Yes,No,No,http://www.ihs.gov/California/Universal/PageMain.cfm?p=231&ProgramNbr=52
Title 5 (638),Benewah Medical Center,1115 B St,Plummer,ID,83851,(208) 686-5072,Health Center,Yes,Yes,Yes,NULL
Title 1 (Tribal),Camp Verde Health Center,2121 West Reservation Loop Road,Camp Verde,AZ,86322,N/A,Health Center,No,No,No,NULL
IHS,Fort Yuma Health Center (Winterhaven),1 Indian Hill Road,Winterhaven,CA,92283,760-572-0217,Health Center,No,No,No,NULL
Title 1 (Tribal),Kaibab-Paiute Health Station (includes Alcohol Program),N/A,Fredonia,AZ,N/A,N/A,Health Station,No,No,No,NULL
Title 5 (638),Las Vegas Paiute Health Station,1257 PAIUTE CIRCLE,Las Vegas,NV,89106,702-382-0784,Health Station,No,No,No,NULL
IHS,Nevada Skies Youth Wellness Center,104 Big Bend Ranch Road,Wadsworth,NV,89442,775-352-6840,Alcohol Substance Abuse Treatment Facility,Yes,No,No,NULL
Title 5 (638),Moapa Health Station,#1 Lincoln Street,Moapa,NV,89025,N/A,Health Station,No,No,No,NULL
IHS,Desert Visions Youth Wellness Center,P.O. Box 458,Sacaton,AZ,85347,520-562-3801,Alcohol Substance Abuse Treatment Facility,Yes,No,No,http://www.ihs.gov/Phoenix/index.cfm?module=dsp_phx_yw_desertvision
NULL,Elko IHS A/C,N/A,Elko,NV,89801,N/A,NULL,No,No,No,NULL
Title 5 (638),Hu-Hu-Kam Memorial Hospital (Sacaton),483 W. SEED FARM ROAD,Sacaton,AZ,85247,N/A,Hospital,No,No,No,http://www.ihs.gov/Phoenix/index.cfm?module=dsp_phx_hf_gilariver
Urban,"Native American Community Health Center, Inc.","3008 N 3rd Street, Suite 310",Phoenix,AZ,N/A,602-279-5262 ext. 3410,Health Center,No,No,Yes,NULL
Urban,Indian Walk In Center,120 West 1300 South,Salt Lake City,UT,84115,801-214-7656 or 801-486-4877,Health Location,No,No,No,NULL
IHS,San Carlos Hospital,238 CIBEQUE CIRCLE,San Carlos,AZ,85550,928-475-2371,Hospital,No,No,Yes,http://www.ihs.gov/Phoenix/index.cfm?module=dsp_phx_hf_sanCarlos
IHS,Supai Canyon Health Station,Main Street,Supai,AZ,86435,928-669-2137,Health Station,No,No,No,http://www.ihs.gov/Phoenix/index.cfm?module=dsp_phx_hf_coloradoRiver
IHS,Whiteriver Hospital,HWY 73 MILE POST 342,WHITERIVER,AZ,85941,928-338-3501,Hospital,No,No,Yes,http://www.ihs.gov/Phoenix/index.cfm?module=dsp_phx_hf_whiteriver
Title 5 (638),Red Lake Comprehensive Health ,24760 Hospital Drive,Red Lake,MN,56671,218-679-3316,Health Center,No,No,No,NULL
IHS,Chemawa Indian School,3700 Chemawa Road NE,Salem,OR,97305,N/A,Health Center,No,No,No,NULL
IHS,Chemawa Indian Health Center,3750 Chemawa Road NE,Salem,OR,97305,(503) 304-7600,Health Center,Yes,Yes,No,NULL
Urban,Gerald L Ignace Indian Health Center (Milwaukee),1711 South 11th Street,Milwaukee,WI,53204,414-383-9526,Health Center,NULL,NULL,NULL,http://www.gliihc.net/Pages/default.aspx
Urban,American Indian Health and Family Services of SE Michigan,4880 Lawndale St,Detroit,MI,48210,313-846-6030,Health Center,NULL,NULL,NULL,http://www.aihfs.org
Urban,American Indian Health Services of Chicago,4085 North Broadway,Chicago,IL,60613,773-883-9100,Health Center,NULL,NULL,NULL,http://www.aihschicago.org
Urban,Indian Health Board of Minneapolis,1315 E 24th St,Minneapolis,MN,55404,612-721-9800,Health Center,NULL,Yes,NULL,http://www.indianhealthboard.com
Urban,Baltimore LifeLines - Boston Satellite,2077 Centre St,West Roxbury,MA,2132,857-203-9680,Other,NULL,NULL,NULL,http://www.nativeamericanlifelinesofboston.org
Urban,Native Health of Spokane,1803 West Maxwell Avenue,Spokane,WA,99201,509-325-7535,Health Center,Yes,Yes,NULL,http://www.nativeproject.org
Tribal,Winnebago Tribal Health,225 South Bluff Street,Winnebago,NE,68071,N/A,Other,NULL,NULL,NULL,NULL
Tribal,Oglala Sioux Tribal Health,E. Highway 18,Pine Ridge,SD,57770,N/A,Other,NULL,NULL,NULL,NULL
Title 5 (638),Chickasaw Nation Medical Center,1921 Stonecipher Blvd.,Ada,OK,74820,(580) 436-3980,Hospital,Yes,Yes,Yes,http://www.chickasaw.net/services/index_5311.htm
Title 5 (638),Five Directions Treatment Center,121 Iowa St,Klamath Falls,OR,97601,541-882-1863,Behavioral Health Facility,Yes,NULL,NULL,http://www.ihs.gov/medicalprograms/behavioral/documents/yrtc-profiles.pdf
Title 5 (638),Graf Rheeneerhaanjii,2550 Lawlor Road,Fairbanks,AK,99708,907-455-4725,Behavioral Health Facility,Yes,NULL,NULL,http://www.tananachiefs.org/graf.htm
NULL,Navajo Regional Behavioral Health Center,Hwy 491 North,Shiprock,NM,87420,505-368-1429,Behavioral Health Facility,Yes,NULL,NULL,http://www.ihs.gov/medicalprograms/behavioral/documents/yrtc-profiles.pdf
Urban,"Native American Health Center, Oakland",3124 International Boulevard,Oakland,CA,94601,510-535-4400,Health Center,NULL,NULL,NULL,NULL
IHS,Crow Health Location,10110 South 7650 East,Crow Agency,MT,59022,406-638-3461,Health Location,NULL,NULL,NULL,NULL
IHS,Sherman Indian Boarding School,9010 Magnolia Avenue,Riverside,CA,92503,N/A,School Health Center,NULL,NULL,NULL,NULL
Title 5 (638),Gila River Criminal Justice Facility,669 W Seedfarm Rd,Sacaton,AZ,85147,N/A,Health Station,NULL,NULL,NULL,NULL
Title 5 (638),Northern Valley Indian Health - Children's Center,277 Cohasset Road,Chico,CA,95926,N/A,Health Center,NULL,NULL,NULL,NULL
Title 1 (Tribal),Manchester-Point Arena Clinic,24 Mamie Laiwa Rd,Point Arena,CA,95468,N/A,Health Station,NULL,NULL,NULL,NULL
Title 5 (638),Consolidated Tribal Health Program,6991 N State Street,Redwood Valley,CA,95470,N/A,Health Center,NULL,NULL,NULL,NULL
Title 1 (Tribal),La Posta Outreach Substance Abuse Center,8 Crestwood Road,Boulevard,CA,91905,619-445-1188,Behavioral Health Facility,Yes,NULL,NULL,http://www.southernindianhealth.org
Title 1 (Tribal),Santa Ynez Tribal Health Behavioral Health,90 Via Juana Lane,Santa Ynez,CA,93460,805-688-7070,Behavioral Health Facility,Yes,NULL,NULL,http://www.sythc.com
IHS,Tuscarora CHS Program,2015 Mount Hope Road,Lewiston,NY,14092,716-297-0310,Health Location,NULL,NULL,NULL,NULL
Urban,American Indian Community House,134 West 29th Street,New York,NY,10001,212-598-0100,Other,Yes,No,No,http://www.aich.org
Urban,Baltimore American Indian Center,106 West Clay Street,Baltimore,MD,21201,410-837-2258,Other,NULL,NULL,NULL,http://nativeamericanlifelines.org/Contact-Us.php
Title 5 (638),CIHA BABY LOVE,P.O. Box 666,Cherokee,NC,28719,828-554-6881,Other,NULL,NULL,NULL,NULL
Title 5 (638),CIHA Women's Wellness Center,P.O. Box 736,Cherokee,NC,28719,828-497-8178,Other,NULL,NULL,NULL,NULL
Title 1 (Tribal),Wassaja Memorial Health Center,16240 North Fort McDowell Road ,Fort McDowell,AZ,85264,480-789-7520,Health Center,No,No,No,NULL
Title 5 (638),Kanza Health Center,3151 East River Rd,Newkirk,OK,74647,(580) 362-1039,Health Center,No,Yes,Yes,NULL
Title 5 (638),MBCI Women's Wellness,210 Hospital Circle,Choctaw,MS,39350,601-656-2211,Other,NULL,NULL,NULL,NULL
Title 5 (638),MBCI Outpatient Clinic,210 Hospital Circle,Choctaw,MS,39350,601-656-2211,Health Station,Yes,Yes,No,NULL
IHS,New Sunrise Regional Treatment Center,20 Mocking Drive,Acoma,NM,87034,505-552-5509,Behavioral Health Facility,Yes,NULL,NULL,http://www.ihs.gov/albuquerque/newsunrise/
Title 1 (Tribal),Santo Domingo Health Center,W 85 Hwy 22,Santo Domingo Pueblo,NM,87052,505-465-3060,Health Station,Yes,Yes,Yes,NULL